id,ident,type,name,latitude_deg,longitude_deg,elevation_ft,continent,country_name,iso_country,region_name,iso_region,local_region,municipality,scheduled_service,gps_code,iata_code,,,,,,,,,,,,,,,,,,,,,,,
27188,ZBAA,large_airport,Beijing Capital International Airport,40.08010101,116.5849991,116,AS,China,CN,Beijing Municipality,CN-11,11,Beijing,1,ZBAA,PEK,,,,,,,,,,,,,,,,,,,,,,,
27223,ZSPD,large_airport,Shanghai Pudong International Airport,31.1434,121.805,13,AS,China,CN,Shanghai Municipality,CN-31,31,Shanghai (Pudong),1,ZSPD,PVG,,,,,,,,,,,,,,,,,,,,,,,
27225,ZSSS,large_airport,Shanghai Hongqiao International Airport,31.198104,121.33426,10,AS,China,CN,Shanghai Municipality,CN-31,31,Shanghai (Minhang),1,ZSSS,SHA,,,,,,,,,,,,,,,,,,,,,,,
27194,ZGGG,large_airport,Guangzhou Baiyun International Airport,23.392401,113.299004,50,AS,China,CN,Guangdong Province,CN-44,44,Guangzhou (Huadu),1,ZGGG,CAN,,,,,,,,,,,,,,,,,,,,,,,
27205,ZLXY,large_airport,Xi'an Xianyang International Airport,34.447102,108.751999,1572,AS,China,CN,Shaanxi Province,CN-61,61,Xianyang (Weicheng),1,ZLXY,XIY,,,,,,,,,,,,,,,,,,,,,,,
27230,ZUUU,large_airport,Chengdu Shuangliu International Airport,30.558257,103.945966,1625,AS,China,CN,Sichuan Province,CN-51,51,Chengdu (Shuangliu),1,ZUUU,CTU,,,,,,,,,,,,,,,,,,,,,,,
27198,ZGSZ,large_airport,Shenzhen Bao'an International Airport,22.639299,113.810997,13,AS,China,CN,Guangdong Province,CN-44,44,Shenzhen (Bao'an),1,ZGSZ,SZX,,,,,,,,,,,,,,,,,,,,,,,
27214,ZPPP,large_airport,Kunming Changshui International Airport,25.110313,102.936743,6903,AS,China,CN,Yunnan Province,CN-53,53,Kunming,1,ZPPP,KMG,,,,,,,,,,,,,,,,,,,,,,,
27215,ZSAM,large_airport,Xiamen Gaoqi International Airport,24.54400063,118.1279984,59,AS,China,CN,Fujian Province,CN-35,35,Xiamen,1,ZSAM,XMN,,,,,,,,,,,,,,,,,,,,,,,
27218,ZSHC,large_airport,Hangzhou Xiaoshan International Airport,30.23609,120.428865,23,AS,China,CN,Zhejiang Province,CN-33,33,Hangzhou,1,ZSHC,HGH,,,,,,,,,,,,,,,,,,,,,,,
27228,ZUCK,large_airport,Chongqing Jiangbei International Airport,29.712254,106.651895,1365,AS,China,CN,Chongqing Municipality,CN-50,50,Chongqing,1,ZUCK,CKG,,,,,,,,,,,,,,,,,,,,,,,
27200,ZHHH,large_airport,Wuhan Tianhe International Airport,30.774798,114.213723,113,AS,China,CN,Hubei Province,CN-42,42,Wuhan (Huangpi),1,ZHHH,WUH,,,,,,,,,,,,,,,,,,,,,,,
27196,ZGKL,large_airport,Guilin Liangjiang International Airport,25.219828,110.039553,570,AS,China,CN,Guangxi Autonomous Region,CN-45,45,Guilin (Lingui),1,ZGKL,KWL,,,,,,,,,,,,,,,,,,,,,,,
27224,CN-0164,closed,Qingdao Liuting Airport,36.266102,120.374001,33,AS,China,CN,Shandong Province,CN-37,37,Qingdao,0,,TAO,,,,,,,,,,,,,,,,,,,,,,,
27242,ZYTL,large_airport,Dalian Zhoushuizi International Airport,38.965698,121.539001,107,AS,China,CN,Liaoning Province,CN-21,21,"Ganjingzi, Dalian",1,ZYTL,DLC,,,,,,,,,,,,,,,,,,,,,,,
27192,ZBTJ,large_airport,Tianjin Binhai International Airport,39.12440109,117.3460007,10,AS,China,CN,Tianjin Municipality,CN-12,12,Tianjin,1,ZBTJ,TSN,,,,,,,,,,,,,,,,,,,,,,,
27221,ZSNJ,large_airport,Nanjing Lukou International Airport,31.735032,118.865949,49,AS,China,CN,Jiangsu Province,CN-32,32,Nanjing,1,ZSNJ,NKG,,,,,,,,,,,,,,,,,,,,,,,
27219,ZSJN,large_airport,Jinan Yaoqiang International Airport,36.857201,117.216003,76,AS,China,CN,Shandong Province,CN-37,37,Jinan,1,ZSJN,TNA,,,,,,,,,,,,,,,,,,,,,,,
27238,ZYHB,large_airport,Harbin Taiping International Airport,45.623402,126.25,457,AS,China,CN,Heilongjiang Province,CN-23,23,Harbin,1,ZYHB,HRB,,,,,,,,,,,,,,,,,,,,,,,
27236,ZWWW,large_airport,Ürümqi Diwopu International Airport,43.90710068,87.47419739,2125,AS,China,CN,Xinjiang Autonomous Region,CN-65,65,Ürümqi,1,ZWWW,URC,,,,,,,,,,,,,,,,,,,,,,,
27199,ZHCC,large_airport,Zhengzhou Xinzheng International Airport,34.526497,113.849165,495,AS,China,CN,Henan Province,CN-41,41,Zhengzhou,1,ZHCC,CGO,,,,,,,,,,,,,,,,,,,,,,,
27202,ZJSY,large_airport,Sanya Phoenix International Airport,18.3029,109.412003,92,AS,China,CN,Hainan Province,CN-46,46,Sanya (Tianya),1,ZJSY,SYX,,,,,,,,,,,,,,,,,,,,,,,
31828,ZPLJ,medium_airport,Lijiang Sanyi International Airport,26.68,100.246002,,AS,China,CN,Yunnan Province,CN-53,53,Lijiang (Gucheng),1,ZPLJ,LJG,,,,,,,,,,,,,,,,,,,,,,,
27243,ZYTX,large_airport,Shenyang Taoxian International Airport,41.639801,123.483002,198,AS,China,CN,Liaoning Province,CN-21,21,"Hunnan, Shenyang",1,ZYTX,SHE,,,,,,,,,,,,,,,,,,,,,,,
27220,ZSNB,large_airport,Ningbo Lishe International Airport,29.82670021,121.461998,13,AS,China,CN,Zhejiang Province,CN-33,33,Ningbo,1,ZSNB,NGB,,,,,,,,,,,,,,,,,,,,,,,
27204,ZLLL,large_airport,Lanzhou Zhongchuan International Airport,36.515202,103.620003,6388,AS,China,CN,Gansu Province,CN-62,62,Lanzhou (Yongdeng),1,ZLLL,LHW,,,,,,,,,,,,,,,,,,,,,,,
31867,ZULS,medium_airport,Lhasa Gonggar Airport,29.298001,90.911951,11713,AS,China,CN,Tibet Autonomous Region,CN-54,54,Shannan (Gonggar),1,ZULS,LXA,,,,,,,,,,,,,,,,,,,,,,,
27217,ZSFZ,large_airport,Fuzhou Changle International Airport,25.934669,119.66318,46,AS,China,CN,Fujian Province,CN-35,35,Fuzhou,0,ZSFZ,FOC,,,,,,,,,,,,,,,,,,,,,,,
27193,ZBYN,large_airport,Taiyuan Wusu Airport,37.746899,112.627998,2575,AS,China,CN,Shanxi Province,CN-14,14,Taiyuan,1,ZBYN,TYN,,,,,,,,,,,,,,,,,,,,,,,
32489,ZSTX,medium_airport,Tunxi International Airport,29.73329926,118.2559967,,AS,China,CN,Anhui Province,CN-34,34,Huangshan,1,ZSTX,TXN,,,,,,,,,,,,,,,,,,,,,,,
330820,ZBAD,large_airport,Beijing Daxing International Airport,39.509945,116.41092,98,AS,China,CN,Beijing Municipality,CN-11,11,Beijing,1,ZBAD,PKX,,,,,,,,,,,,,,,,,,,,,,,
27237,ZYCC,large_airport,Changchun Longjia International Airport,43.996201,125.684998,706,AS,China,CN,Jilin Province,CN-22,22,Changchun,1,ZYCC,CGQ,,,,,,,,,,,,,,,,,,,,,,,
30593,ZGSD,medium_airport,Zhuhai Jinwan Airport,22.006399,113.375999,23,AS,China,CN,Guangdong Province,CN-44,44,Zhuhai (Jinwan),1,ZGSD,ZUH,,,,,,,,,,,,,,,,,,,,,,,
27222,ZSOF,medium_airport,Hefei Xinqiao International Airport,31.98779,116.9769,207,AS,China,CN,Anhui Province,CN-34,34,Hefei,1,ZSOF,HFE,,,,,,,,,,,,,,,,,,,,,,,
27201,ZJHK,large_airport,Haikou Meilan International Airport,19.9349,110.459,75,AS,China,CN,Hainan Province,CN-46,46,Haikou (Meilan),1,ZJHK,HAK,,,,,,,,,,,,,,,,,,,,,,,
44093,ZBNY,small_airport,Beijing Nanyuan Air Base,39.782158,116.386299,,AS,China,CN,Beijing Municipality,CN-11,11,Beijing,0,,,,,,,,,,,,,,,,,,,,,,,,,
27195,ZGHA,large_airport,Changsha Huanghua International Airport,28.189199,113.220001,217,AS,China,CN,Hunan Province,CN-43,43,Changsha (Changsha),1,ZGHA,CSX,,,,,,,,,,,,,,,,,,,,,,,
32672,ZSWZ,large_airport,Wenzhou Longwan International Airport,27.912201,120.851997,,AS,China,CN,Zhejiang Province,CN-33,33,Wenzhou,1,ZSWZ,WNZ,,,,,,,,,,,,,,,,,,,,,,,
300512,ZUJZ,medium_airport,Jiuzhai Huanglong Airport,32.853333,103.682222,11327,AS,China,CN,Sichuan Province,CN-51,51,Ngawa (Songpan),1,ZUJZ,JZH,,,,,,,,,,,,,,,,,,,,,,,
32723,ZHYC,medium_airport,Yichang Sanxia Airport,30.554132,111.482563,673,AS,China,CN,Hubei Province,CN-42,42,Yichang (Xiaoting),1,ZHYC,YIH,,,,,,,,,,,,,,,,,,,,,,,
32299,ZLSN,medium_airport,Xi'an Xiguan Airport,34.376701,109.120003,,AS,China,CN,Shaanxi Province,CN-61,61,Xi'an (Baqiao),0,ZLSN,SIA,,,,,,,,,,,,,,,,,,,,,,,
27229,ZUGY,large_airport,Guiyang Longdongbao International Airport,26.541466,106.803331,3736,AS,China,CN,Guizhou Province,CN-52,52,Guiyang (Nanming),1,ZUGY,KWE,,,,,,,,,,,,,,,,,,,,,,,
27189,ZBHH,large_airport,Hohhot Baita International Airport,40.849658,111.824598,3556,AS,China,CN,Inner Mongolia Autonomous Region,CN-15,15,Hohhot,1,ZBHH,HET,,,,,,,,,,,,,,,,,,,,,,,
27216,ZSCN,large_airport,Nanchang Changbei International Airport,28.864815,115.90271,143,AS,China,CN,Jiangxi Province,CN-36,36,Nanchang,1,ZSCN,KHN,,,,,,,,,,,,,,,,,,,,,,,
32006,ZBBB,medium_airport,Beijing Xijiao Airport,39.9608,116.257004,,AS,China,CN,Beijing Municipality,CN-11,11,Beijing,0,ZBBB,,,,,,,,,,,,,,,,,,,,,,,,
32709,ZLXN,medium_airport,Xining Caojiabao International Airport,36.528295,102.040157,7119,AS,China,CN,Qinghai Province,CN-63,63,Haidong (Huzhu Tu Autonomous County),1,ZLXN,XNN,,,,,,,,,,,,,,,,,,,,,,,
30871,ZSCG,medium_airport,Changzhou Benniu International Airport,31.919701,119.778999,,AS,China,CN,Jiangsu Province,CN-32,32,Changzhou,1,ZSCG,CZX,,,,,,,,,,,,,,,,,,,,,,,
30925,ZPDL,medium_airport,Dali Fengyi Airport,25.649401,100.319,7050,AS,China,CN,Yunnan Province,CN-53,53,Dali (Xiaguan),1,ZPDL,DLU,,,,,,,,,,,,,,,,,,,,,,,
44159,CN-0081,medium_airport,Jinggangshan Airport,26.856899,114.737,281,AS,China,CN,Jiangxi Province,CN-36,36,Ji'an,1,ZSJA,JGS,,,,,,,,,,,,,,,,,,,,,,,
31705,ZSQZ,medium_airport,Quanzhou Jinjiang International Airport,24.7964,118.589996,,AS,China,CN,Fujian Province,CN-35,35,Quanzhou,1,ZSQZ,JJN,,,,,,,,,,,,,,,,,,,,,,,
32684,ZSWX,medium_airport,Sunan Shuofang International Airport,31.49440002,120.4290009,24,AS,China,CN,Jiangsu Province,CN-32,32,Wuxi,1,ZSWX,WUX,,,,,,,,,,,,,,,,,,,,,,,
27227,ZSYT,small_airport,Yantai Laishan Airport,37.396825,121.369571,59,AS,China,CN,Shandong Province,CN-37,37,Yantai,0,,,,,,,,,,,,,,,,,,,,,,,,,
35146,CN-0001,closed,Old Guangzhou Baiyun International Airport,23.1842,113.265999,,AS,China,CN,Guangdong Province,CN-44,44,Guangzhou (Baiyun),0,,,,,,,,,,,,,,,,,,,,,,,,,
27197,ZGNN,large_airport,Nanning Wuxu Airport,22.608299,108.171997,421,AS,China,CN,Guangxi Autonomous Region,CN-45,45,Nanning (Jiangnan),1,ZGNN,NNG,,,,,,,,,,,,,,,,,,,,,,,
342096,TAO,large_airport,Qingdao Jiaodong International Airport,36.361953,120.088171,30,AS,China,CN,Shandong Province,CN-37,37,"Jiaozhou, Qingdao",1,ZSQD,TAO,,,,,,,,,,,,,,,,,,,,,,,
332096,YNT,large_airport,Yantai Penglai International Airport,37.659724,120.978124,154,AS,China,CN,Shandong Province,CN-37,37,Yantai,1,ZSYT,YNT,,,,,,,,,,,,,,,,,,,,,,,
30679,ZBOW,medium_airport,Baotou Donghe Airport,40.560001,109.997002,3321,AS,China,CN,Inner Mongolia Autonomous Region,CN-15,15,Baotou,1,ZBOW,BAV,,,,,,,,,,,,,,,,,,,,,,,
31658,ZSLQ,medium_airport,Taizhou Luqiao Airport,28.562201,121.429001,,AS,China,CN,Zhejiang Province,CN-33,33,Huangyan,1,ZSLQ,HYN,,,,,,,,,,,,,,,,,,,,,,,
27213,ZPJH,medium_airport,Xishuangbanna Gasa International Airport,21.974648,100.762224,1815,AS,China,CN,Yunnan Province,CN-53,53,Jinghong (Gasa),1,ZPJH,JHG,,,,,,,,,,,,,,,,,,,,,,,
27231,ZUXC,medium_airport,Xichang Qingshan Airport,27.9891,102.183998,5112,AS,China,CN,Sichuan Province,CN-51,51,Liangshan (Xichang),1,ZUXC,XIC,,,,,,,,,,,,,,,,,,,,,,,
31876,ZUNZ,medium_airport,Nyingchi Mainling Airport,29.303301,94.335297,9675,AS,China,CN,Tibet Autonomous Region,CN-54,54,Nyingchi (Mainling),1,ZUNZ,LZY,,,,,,,,,,,,,,,,,,,,,,,
31684,ZWCM,medium_airport,Qiemo Yudu Airport,38.234516,85.465462,,AS,China,CN,Xinjiang Autonomous Region,CN-65,65,Qiemo,1,ZWCM,IQM,,,,,,,,,,,,,,,,,,,,,,,
27191,ZBSJ,medium_airport,Shijiazhuang Zhengding International Airport,38.280701,114.696999,233,AS,China,CN,Hebei Province,CN-13,13,Shijiazhuang,1,ZBSJ,SJW,,,,,,,,,,,,,,,,,,,,,,,
27226,ZSWH,medium_airport,Weihai Dashuibo Airport,37.187099,122.228996,145,AS,China,CN,Shandong Province,CN-37,37,Weihai,1,ZSWH,WEH,,,,,,,,,,,,,,,,,,,,,,,
32400,ZGOW,medium_airport,Jieyang Chaoshan International Airport,23.552,116.5033,,AS,China,CN,Guangdong Province,CN-44,44,Jieyang (Rongcheng),1,ZGOW,SWA,,,,,,,,,,,,,,,,,,,,,,,
31870,ZHLY,medium_airport,Luoyang Beijiao Airport,34.7411,112.388,840,AS,China,CN,Henan Province,CN-41,41,Luoyang (Laocheng),1,ZHLY,LYA,,,,,,,,,,,,,,,,,,,,,,,
32048,CN-NTG,medium_airport,Nantong Xingdong International Airport,32.070801,120.975998,16,AS,China,CN,Jiangsu Province,CN-32,32,Nantong,1,ZSNT,NTG,,,,,,,,,,,,,,,,,,,,,,,
32697,ZHXF,medium_airport,Xiangyang Liuji Airport,32.152222,112.291666,234,AS,China,CN,Hubei Province,CN-42,42,Xiangyang (Xiangzhou),1,ZHXF,XFN,,,,,,,,,,,,,,,,,,,,,,,
35316,ZSYN,medium_airport,Yancheng Nanyang International Airport,33.425833,120.203056,,AS,China,CN,Jiangsu Province,CN-32,32,Yancheng,1,ZSYN,YNZ,,,,,,,,,,,,,,,,,,,,,,,
44169,CN-0091,medium_airport,Dongying Shengli Airport,37.50859833,118.788002,15,AS,China,CN,Shandong Province,CN-37,37,Dongying,0,ZSDY,DOY,,,,,,,,,,,,,,,,,,,,,,,
44225,CN-0147,medium_airport,Feidong Air Base,31.909401,117.658997,,AS,China,CN,Anhui Province,CN-34,34,Hefei,0,,,,,,,,,,,,,,,,,,,,,,,,,
35312,ZSLG,small_airport,Baitabu Air Base,34.571302,118.873143,,AS,China,CN,Jiangsu Province,CN-32,32,Lianyungang,0,,,,,,,,,,,,,,,,,,,,,,,,,
30958,ZGDY,small_airport,Zhangjiajie Hehua International Airport,29.1028,110.443001,692,AS,China,CN,Hunan Province,CN-43,43,Zhangjiajie (Yongding),1,ZGDY,DYG,,,,,,,,,,,,,,,,,,,,,,,
300455,ZBYC,small_airport,Yuncheng Zhangxiao Airport,35.116391,111.031389,1242,AS,China,CN,Shaanxi Province,CN-61,61,Yuncheng (Yanhu),1,ZBYC,YCU,,,,,,,,,,,,,,,,,,,,,,,
44178,CN-0100,small_airport,Qingdao Cangkou Air Base,36.158929,120.387832,,AS,China,CN,Shandong Province,CN-37,37,Qingdao,0,,,,,,,,,,,,,,,,,,,,,,,,,
30788,ZUBD,medium_airport,Qamdo Bangda Airport,30.55360031,97.10829926,14219,AS,China,CN,Tibet Autonomous Region,CN-54,54,Bangda,1,ZUBD,BPX,,,,,,,,,,,,,,,,,,,,,,,
30929,ZLDH,medium_airport,Dunhuang Mogao International Airport,40.161098,94.809196,,AS,China,CN,Gansu Province,CN-62,62,Dunhuang,1,ZLDH,DNH,,,,,,,,,,,,,,,,,,,,,,,
31576,ZYHE,medium_airport,Heihe Aihui Airport,50.171621,127.308884,1047,AS,China,CN,Heilongjiang Province,CN-23,23,Heihe,1,ZYHE,HEK,,,,,,,,,,,,,,,,,,,,,,,
27235,ZWTN,medium_airport,Hotan Airport,37.03850174,79.86489868,4672,AS,China,CN,Xinjiang Autonomous Region,CN-65,65,Hotan,1,ZWTN,HTN,,,,,,,,,,,,,,,,,,,,,,,
27234,ZWSH,medium_airport,Kashgar Airport,39.54290009,76.01999664,4529,AS,China,CN,Xinjiang Autonomous Region,CN-65,65,Kashgar,1,ZWSH,KHG,,,,,,,,,,,,,,,,,,,,,,,
322165,ZBMZ,medium_airport,Manzhouli Xijiao Airport,49.566667,117.33,2231,AS,China,CN,Inner Mongolia Autonomous Region,CN-15,15,,1,ZBMZ,NZH,,,,,,,,,,,,,,,,,,,,,,,
44191,CN-0113,medium_airport,Altay Xuedu Airport,47.749886,88.085808,2460,AS,China,CN,Xinjiang Autonomous Region,CN-65,65,Altay,1,ZWAT,AAT,,,,,,,,,,,,,,,,,,,,,,,
314499,ZBYZ,medium_airport,Bayannur Tianjitai Airport,40.926,107.7428,3400,AS,China,CN,Inner Mongolia Autonomous Region,CN-15,15,Bavannur,1,ZBYZ,RLK,,,,,,,,,,,,,,,,,,,,,,,
313426,ZWKN,medium_airport,Burqin Kanas Airport,48.2223,86.9959,3921,AS,China,CN,Xinjiang Autonomous Region,CN-65,65,Burqin,1,ZWKN,KJI,,,,,,,,,,,,,,,,,,,,,,,
31862,ZPLX,medium_airport,Dehong Mangshi Airport,24.4011,98.5317,2890,AS,China,CN,Yunnan Province,CN-53,53,Dehong (Mangshi),1,ZPMS,LUM,,,,,,,,,,,,,,,,,,,,,,,
30916,ZPDQ,medium_airport,Diqing Shangri-La Airport,27.7936,99.6772,10761,AS,China,CN,Yunnan Province,CN-53,53,Diqing (Shangri-La),1,ZPDQ,DIG,,,,,,,,,,,,,,,,,,,,,,,
300671,ZBER,medium_airport,Erenhot Saiwusu International Airport,43.4225,112.096667,3301,AS,China,CN,Inner Mongolia Autonomous Region,CN-15,15,Erenhot,1,ZBER,ERL,,,,,,,,,,,,,,,,,,,,,,,
312986,ZLXH,medium_airport,Gannan Xiahe Airport,34.819014,102.622261,10510,AS,China,CN,Gansu Province,CN-62,62,Gannan (Xiahe),1,ZLXH,GXH,,,,,,,,,,,,,,,,,,,,,,,
35308,ZLGM,medium_airport,Golmud Airport,36.4006,94.786102,9334,AS,China,CN,Qinghai Province,CN-63,63,Golmud,1,ZLGM,GOQ,,,,,,,,,,,,,,,,,,,,,,,
319715,GMQ,medium_airport,Golog Maqên Airport,34.418066,100.301144,12426,AS,China,CN,Qinghai Province,CN-63,63,Golog (Maqên),1,ZLGL,GMQ,,,,,,,,,,,,,,,,,,,,,,,
31609,ZWHM,medium_airport,Hami Airport,42.8414,93.669197,2703,AS,China,CN,Xinjiang Autonomous Region,CN-65,65,Hami,1,ZWHM,HMI,,,,,,,,,,,,,,,,,,,,,,,
300860,ZBHD,medium_airport,Handan Airport,36.525833,114.425556,229,AS,China,CN,Hebei Province,CN-13,13,Handan,1,ZBHD,HDG,,,,,,,,,,,,,,,,,,,,,,,
301009,JGD,medium_airport,Jiagedaqi Airport,50.371389,124.1175,1205,AS,China,CN,Heilongjiang Province,CN-23,23,Jiagedaqi,1,ZYJD,JGD,,,,,,,,,,,,,,,,,,,,,,,
44116,CN-0040,medium_airport,Lincang Boshang Airport,23.7381,100.025002,6230,AS,China,CN,Yunnan Province,CN-53,53,Lincang,1,ZPLC,LNJ,,,,,,,,,,,,,,,,,,,,,,,
31874,ZGZH,medium_airport,Liuzhou Bailian Airport / Bailian Air Base,24.2075,109.390999,295,AS,China,CN,Guangxi Autonomous Region,CN-45,45,Liuzhou (Liujiang),1,ZGZH,LZH,,,,,,,,,,,,,,,,,,,,,,,
327444,ZBLL,medium_airport,Lüliang Dawu Airport,37.683333,111.142778,,AS,China,CN,Shaanxi Province,CN-61,61,Lüliang,1,ZBLL,LLV,,,,,,,,,,,,,,,,,,,,,,,
301193,ZYMH,medium_airport,Mohe Gulian Airport,52.916871,122.422759,1836,AS,China,CN,Heilongjiang Province,CN-23,23,Mohe,1,ZYMH,OHE,,,,,,,,,,,,,,,,,,,,,,,
300513,ZBDS,medium_airport,Ordos Ejin Horo Airport,39.49,109.8613889,4557,AS,China,CN,Inner Mongolia Autonomous Region,CN-15,15,Ordos,1,ZBDS,DSN,,,,,,,,,,,,,,,,,,,,,,,
44126,CN-0050,medium_airport,Panzhihua Bao'anying Airport,26.54,101.79852,1620,AS,China,CN,Sichuan Province,CN-51,51,Panzhihua (Renhe),1,ZUZH,PZI,,,,,,,46,AS,China,CN,Hebei Province,CN-13,13,Qinhuangdao,1,ZBDH,BPE,,,https://en.wikipedia.org/wiki/Qinhuangdao_Beidaihe_Airport,,500,2016-05-30T09:36:23+00:00
323218,ZSRZ,medium_airport,Rizhao Shanzihe Airport,35.405033,119.324403,121,AS,China,CN,Shandong Province,CN-37,37,Rizhao,1,ZSRZ,RIZ,,,,,,,,,,,,,,,,,,,,,,,
300545,ZUAL,medium_airport,Ngari Gunsa Airport,32.1,80.053056,14022,AS,China,CN,Tibet Autonomous Region,CN-54,54,Shiquanhe,1,ZUAL,NGQ,,,,,,,,,,,,,,,,,,,,,,,
318173,ZHSY,medium_airport,Shiyan Wudangshan Airport,32.592889,110.906296,,AS,China,CN,Hubei Province,CN-42,42,Shiyan (Maojian),1,ZHSY,WDS,,,,,,,,,,,,,,,,,,,,,,,
32646,ZSWF,medium_airport,Weifang Nanyuan Airport,36.646702,119.119003,,AS,China,CN,Shandong Province,CN-37,37,Weifang,1,ZSWF,WEF,,,,,,,,,,,,,,,,,,,,,,,
32713,ZSXZ,medium_airport,Xuzhou Guanyin International Airport,34.059056,117.555278,,AS,China,CN,Jiangsu Province,CN-32,32,Xuzhou,1,ZSXZ,XUZ,,,,,,,,,,,,,,,,,,,,,,,
315853,ZSYC,medium_airport,Yichun Mingyueshan Airport,27.8025,114.3062,430,AS,China,CN,Jiangxi Province,CN-36,36,Yichun,1,ZSYC,YIC,,,,,,,,,,,,,,,,,,,,,,,
298989,ZLIC,medium_airport,Yinchuan Hedong International Airport,38.322758,106.393214,,AS,China,CN,Ningxia Autonomous Region,CN-64,64,Yinchuan,1,ZLIC,INC,,,,,,,,,,,,,,,,,,,,,,,
308240,ZSFY,medium_airport,Fuyang Xiguan Airport,32.882157,115.734364,104,AS,China,CN,Anhui Province,CN-34,34,"Yingzhou, Fuyang",1,ZSFY,FUG,,,,,,,,,,,,,,,,,,,,,,,
32726,ZSYW,medium_airport,Yiwu Airport,29.34469986,120.0319977,262,AS,China,CN,Zhejiang Province,CN-33,33,Yiwu,1,ZSYW,YIW,,,,,,,,,,,,,,,,,,,,,,,
300516,ZYLS,medium_airport,Yushu Batang Airport,32.836389,97.036389,12816,AS,China,CN,Qinghai Province,CN-63,63,Yushu (Batang),1,ZYLS,YUS,,,,,,,,,,,,,,,,,,,,,,,
308403,ZUZY,medium_airport,Zunyi Xinzhou Airport,27.5895,107.0007,2920,AS,China,CN,Guizhou Province,CN-52,52,Zunyi,1,ZUZY,ZYI,,,,,,,,,,,,,,,,,,,,,,,
44237,CN-0159,closed,Longyou Air Base,29.1131,119.177002,,AS,China,CN,Zhejiang Province,CN-33,33,,0,,,,,,,,,,,,,,,,,,,,,,,,,
44230,CN-0152,medium_airport,Huian Air Base,25.02610016,118.8069992,,AS,China,CN,Fujian Province,CN-35,35,,0,,,,,,,,,,,,,,,,,,,,,,,,,
348158,CN-0188,medium_airport,Beijing Nanjiao Airport,39.48595,116.37236,,AS,China,CN,Beijing Municipality,CN-11,11,Beijing,0,ZBNY,NAY,,,,,,,,,,,,,,,,,,,,,,,
44263,CN-0185,medium_airport,Changchun Air Base,43.9053,125.197998,,AS,China,CN,Jilin Province,CN-22,22,Changchun,0,,,,,,,,,,,,,,,,,,,,,,,,,
44102,CN-0026,medium_airport,Chengdu Huangtianba Air Base,30.705299,103.949997,,AS,China,CN,Sichuan Province,CN-51,51,Chengdu (Qingyang),0,,,,,,,,,,,,,,,,,,,,,,,,,
44203,CN-0125,medium_airport,Lintao Air Base,35.3083,103.835999,,AS,China,CN,Gansu Province,CN-62,62,Dingxi (Lintao),0,,,,,,,,,,,,,,,,,,,,,,,,,
44195,CN-0117,medium_airport,Gonghe Air Base,36.3367,100.480003,,AS,China,CN,Qinghai Province,CN-63,63,Hainan (Gonghe),0,,,,,,,,,,,,,,,,,,,,,,,,,
44276,CN-0198,medium_airport,Lalin Air Base,45.259457,126.893536,,AS,China,CN,Heilongjiang Province,CN-23,23,Harbin,0,,,,,,,,,,,,,,,,,,,,,,,,,
312371,AHJ,medium_airport,Hongyuan Airport,32.53154,102.35224,11600,AS,China,CN,Sichuan Province,CN-51,51,Ngawa (Hongyuan),0,ZUHY,AHJ,,,,,,,,,,,,,,,,,,,,,,,
44243,CN-0165,medium_airport,Ningbo Zhuangqiao Air Base,29.9228,121.573997,,AS,China,CN,Zhejiang Province,CN-33,33,Ningbo,0,,,,,,,,,,,,,,,,,,,,,,,,,
44247,CN-0169,medium_airport,Shanghai Dachang Air Base,31.324438,121.409508,,AS,China,CN,Shanghai Municipality,CN-31,31,Shanghai (Baoshan),0,,,,,,,,,,,,,,,,,,,,,,,,,
44286,CN-0208,medium_airport,Siping Air Base,43.156898,124.292,,AS,China,CN,Jilin Province,CN-22,22,Siping,0,,,,,,,,,,,,,,,,,,,,,,,,,
43972,CN-0003,medium_airport,Laohutun Air Base,39.669998,121.765999,,AS,China,CN,Liaoning Province,CN-21,21,"Wafangdian, Dalian",0,,,,,,,,,,,,,,,,,,,,,,,,,
44214,CN-0136,medium_airport,Wuwei Air Base,37.9883,102.567001,,AS,China,CN,Gansu Province,CN-62,62,Wuwei,0,,,,,,,,,,,,,,,,,,,,,,,,,
44212,CN-0134,medium_airport,Wugong Air Base,34.275907,108.2658,,AS,China,CN,Shaanxi Province,CN-61,61,Xianyang (Wugong),0,,,,,,,,,,,,,,,,,,,,,,,,,
44260,CN-0182,medium_airport,Zhangshu Air Base,28.023283,115.549649,116,AS,China,CN,Jiangxi Province,CN-36,36,Yichun,0,,,,,,,,,,,,,,,,,,,,,,,,,
324768,CN-0076,medium_airport,Zhengzhou Air Base,34.86125,113.729631,,AS,China,CN,Henan Province,CN-41,41,Zhengzhou,0,,,,,,,,,,,,,,,,,,,,,,,,,
30876,ZBDT,small_airport,Datong Yungang Airport,40.061614,113.480032,3442,AS,China,CN,Shanxi Province,CN-14,14,Datong,1,ZBDT,DAT,,,,,,,,,,,,,,,,,,,,,,,
35307,ZUDX,small_airport,Dachuan Airport,31.1302,107.4295,,AS,China,CN,Sichuan Province,CN-51,51,Dazhou (Daxian),1,ZUDX,DAX,,,,,,,,,,,,,,,,,,,,,,,
31699,ZLJQ,small_airport,Jiayuguan Airport,39.856899,98.3414,5112,AS,China,CN,Gansu Province,CN-62,62,Jiayuguan,1,ZLJQ,JGN,,,,,,,,,,,,,,,,,,,,,,,
31871,ZSLY,small_airport,Linyi Qiyang Airport,35.052918,118.411828,,AS,China,CN,Shandong Province,CN-37,37,Linyi,1,ZSLY,LYI,,,,,,,,,,,,,,,,,,,,,,,
35314,ZGMX,small_airport,Meizhou Meixian Changgangji International Airport,24.263425,116.097857,312,AS,China,CN,Guangdong Province,CN-44,44,Meizhou (Meixian),1,ZGMX,MXZ,,,,,,,,,,,,,,,,,,,,,,,
31677,YEH,small_airport,Yinchuan Helanshan Air Base,38.481899,106.009003,3770,AS,China,CN,Ningxia Autonomous Region,CN-64,64,Yinchuan,0,,,,,,,,,,,,,,,,,,,,,,,,,
351028,CN-0284,small_airport,Miyun/Mujiayu,40.401005,116.881289,300,AS,China,CN,Beijing Municipality,CN-11,11,,0,,,,,,,,,,,,,,,,,,,,,,,,,
30670,ZHAY,small_airport,Anyang Airport,36.1339,114.344002,,AS,China,CN,Henan Province,CN-41,41,Anyang,0,ZHAY,AYN,,,,,,,,,,,,,,,,,,,,,,,
308739,ZUGH,small_airport,Guanghan Airport,30.9485,104.3296,1531,AS,China,CN,Sichuan Province,CN-51,51,Deyang (Guanghan),0,ZUGH,GHN,,,,,,,,,,,,,,,,,,,,,,,
44285,CN-0207,small_airport,Shuangcheng Air Base,45.406874,126.320977,,AS,China,CN,Heilongjiang Province,CN-23,23,Harbin,0,,,,,,,,,,,,,,,,,,,,,,,,,
31701,ZYJL,small_airport,Jilin Ertaizi Airport,44.002652,126.395244,,AS,China,CN,Jilin Province,CN-22,22,Jilin,0,ZYJL,JIL,,,,,,,,,,,,,,,,,,,,,,,
318175,LFQ,small_airport,Linfen Yaomiao Airport,36.041083,111.491683,,AS,China,CN,Shanxi Province,CN-14,14,Linfen (Yaodu),0,,,,,,,,,,,,,,,,,,,,,,,,,
32685,ZGWZ,closed,Wuzhou Changzhoudao Airport,23.456699,111.248001,89,AS,China,CN,Guangxi Autonomous Region,CN-45,45,Wuzhou (Changzhou),0,,,,,,,,,,,,,,,,,,,,,,,,,
319812,HSJ,small_airport,Zhengzhou Shangjie Airport,34.842153,113.273983,450,AS,China,CN,Henan Province,CN-41,41,Zhengzhou,0,,HSJ,,,,,,,,,,,,,,,,,,,,,,,
314908,CN-0032,closed,Kunming Wujiaba International Airport,24.9924,102.7435,6221,AS,China,CN,Yunnan Province,CN-53,53,Kunming,0,,,,,,,,,,,,,,,,,,,,,,,,,
307260,CN-0017,heliport,Lushan Heliport,29.664823,116.079554,,AS,China,CN,Jiangxi Province,CN-36,36,"Lianxi, Jiujiang",0,,,,,,,,,,,,,,,,,,,,,,,,,
342095,ZUTF,large_airport,Chengdu Tianfu International Airport,30.31252,104.441284,1440,AS,China,CN,Sichuan Province,CN-51,51,Chengdu (Jianyang),1,ZUTF,TFU,,,,,,,,,,,,,,,,,,,,,,,
30635,ZWAK,medium_airport,Aksu Hongqipo Airport,41.262501,80.291702,3816,AS,China,CN,Xinjiang Autonomous Region,CN-65,65,Aksu (Onsu),1,ZWAK,AKU,,,,,,,,,,,,,,,,,,,,,,,
30829,ZBCF,medium_airport,Chifeng Yulong Airport,42.157708,118.839455,,AS,China,CN,Inner Mongolia Autonomous Region,CN-15,15,Chifeng,1,ZBCF,CIF,,,,,,,,,,,,,,,,,,,,,,,
31562,ZUGU,medium_airport,Guangyuan Panlong Airport,32.390254,105.694571,,AS,China,CN,Sichuan Province,CN-51,51,Guangyuan (Lizhou),1,ZUGU,GYS,,,,,,,,,,,,,,,,,,,,,,,
27190,ZBLA,medium_airport,Hulunbuir Hailar Airport,49.205002,119.824997,2169,AS,China,CN,Inner Mongolia Autonomous Region,CN-15,15,Hailar,1,ZBLA,HLD,,,,,,,,,,,,,,,,,,,,,,,
27239,ZYJM,medium_airport,Jiamusi Dongjiao Airport,46.843399,130.464996,262,AS,China,CN,Heilongjiang Province,CN-23,23,Jiamusi,1,ZYJM,JMU,,,,,,,,,,,,,,,,,,,,,,,
31771,ZWKL,medium_airport,Korla Licheng Airport,41.6978,86.128899,,AS,China,CN,Xinjiang Autonomous Region,CN-65,65,Korla,1,ZWKL,KRL,,,,,,,,,,,,,,,,,,,,,,,
31908,ZUMY,medium_airport,Mianyang Nanjiao Airport,31.428101,104.740997,,AS,China,CN,Sichuan Province,CN-51,51,Mianyang (Fucheng),1,ZUMY,MIG,,,,,,,,,,,,,,,,,,,,,,,
27240,ZYMD,medium_airport,Mudanjiang Hailang International Airport,44.52410126,129.5690002,883,AS,China,CN,Heilongjiang Province,CN-23,23,Mudanjiang,1,ZYMD,MDG,,,,,,,,,,,,,,,,,,,,,,,
27241,ZYQQ,medium_airport,Qiqihar Sanjiazi Airport,47.23960114,123.9179993,477,AS,China,CN,Heilongjiang Province,CN-23,23,Qiqihar,1,ZYQQ,NDG,,,,,,,,,,,,,,,,,,,,,,,
32440,ZBTL,medium_airport,Tongliao Airport,43.556702,122.199997,2395,AS,China,CN,Inner Mongolia Autonomous Region,CN-15,15,Tongliao,1,ZBTL,TGO,,,,,,,,,,,,,,,,,,,,,,,
32700,ZBXH,medium_airport,Xilinhot Airport,43.91559982,115.9639969,,AS,China,CN,Inner Mongolia Autonomous Region,CN-15,15,Xilinhot,1,ZBXH,XIL,,,,,,,,,,,,,,,,,,,,,,,
27244,ZYYJ,medium_airport,Yanji Chaoyangchuan Airport,42.88280106,129.451004,624,AS,China,CN,Jilin Province,CN-22,22,Yanji,1,ZYYJ,YNJ,,,,,,,,,,,,,,,,,,,,,,,
32743,ZGZJ,closed,Zhanjiang Xintang Airport,21.21469,110.358406,125,AS,China,CN,Guangdong Province,CN-44,44,Zhanjiang (Xiashan),1,,,,,,,,,,,,,,,,,,,,,,,,,
30650,ZSAQ,medium_airport,Anqing Tianzhushan Airport / Anqing North Air Base,30.582199,117.050003,,AS,China,CN,Anhui Province,CN-34,34,Anqing,1,ZSAQ,AQG,,,,,,,,,,,,,,,,,,,,,,,
30646,ZYAS,medium_airport,Anshan Teng'ao Airport / Anshan Air Base,41.105301,122.853996,,AS,China,CN,Liaoning Province,CN-21,21,Anshan,1,ZYAS,AOG,,,,,,,,,,,,,,,,,,,,,,,
300785,ZUAS,medium_airport,Anshun Huangguoshu Airport,26.260556,105.873333,4812,AS,China,CN,Guizhou Province,CN-52,52,Anshun (Xixiu),1,ZUAS,AVA,,,,,,,,,,,,,,,,,,,,,,,
315854,ZBES,medium_airport,Arxan Yi'ershi Airport,47.3106,119.9117,2925,AS,China,CN,Inner Mongolia Autonomous Region,CN-15,15,Arxan,1,ZBES,YIE,,,,,,,,,,,,,,,,,,,,,,,
316519,DBC,medium_airport,Baicheng Chang'an Airport,45.505278,123.019722,480,AS,China,CN,Jilin Province,CN-22,22,Baicheng,1,ZYBA,DBC,,,,,,,,,,,,,,,,,,,,,,,
44160,CN-0082,medium_airport,Baise Youjiang Airport,23.7206,106.959999,490,AS,China,CN,Guangxi Autonomous Region,CN-45,45,Baise (Tianyang),1,ZGBS,AEB,,,,,,,,,,,,,,,,,,,,,,,
300544,NBS,medium_airport,Changbaishan Airport,42.066944,127.602222,2874,AS,China,CN,Jilin Province,CN-22,22,Baishan,1,ZYBS,NBS,,,,,,,,,,,,,,,,,,,,,,,
44103,CN-0027,medium_airport,Baoshan Yunrui Airport,25.053301,99.168297,5453,AS,China,CN,Yunnan Province,CN-53,53,Baoshan (Longyang),1,ZPBS,BSD,,,,,,,,,,,,,,,,,,,,,,,
300514,ZUTC,medium_airport,Tengchong Tuofeng Airport,24.938056,98.485833,6250,AS,China,CN,Yunnan Province,CN-53,53,Baoshan (Tengchong),1,ZUTC,TCZ,,,,,,,,,,,,,,,,,,,,,,,
314558,AXF,medium_airport,Alxa Left Banner Bayanhot Airport,38.74831,105.58858,4560,AS,China,CN,Inner Mongolia Autonomous Region,CN-15,15,Bayanhot,1,ZBAL,AXF,,,,,,,,,,,,,,,,,,,,,,,
318169,ZUBJ,medium_airport,Bijie Feixiong Airport,27.267066,105.472097,4751,AS,China,CN,Guizhou Province,CN-52,52,Bijie,1,ZUBJ,BFJ,,,,,,,,,,,,,,,,,,,,,,,
46650,ZWAX,medium_airport,Bole Alashankou Airport,44.895461,82.30007,1253,AS,China,CN,Xinjiang Autonomous Region,CN-65,65,Bole,1,ZWBL,BPL,,,,,,,,,,,,,,,,,,,,,,,
30825,ZGCD,medium_airport,Changde Taohuayuan Airport,28.9189,111.639999,128,AS,China,CN,Hunan Province,CN-43,43,Changde (Dingcheng),1,ZGCD,CGD,,,,,,,,,,,,,,,,,,,,,,,
300858,ZYCH,medium_airport,Changhai Airport,39.266667,122.666944,80,AS,China,CN,Liaoning Province,CN-21,21,"Changhai, Dalian",1,ZYCH,CNI,,,,,,,,,,,,,,,,,,,,,,,
327347,ZBCD,medium_airport,Chengde Puning Airport,41.1225,118.073889,,AS,China,CN,Hebei Province,CN-13,13,Chengde,1,ZBCD,CDE,,,,,,,,,,,,,,,,,,,,,,,
352634,ZGCZ,medium_airport,Chenzhou Beihu Airport,25.753419,112.845404,1071,AS,China,CN,Hunan Province,CN-43,43,Chenzhou,1,ZGCZ,HCZ,,,,,,,,,,,,,,,,,,,,,,,
31006,ZHES,medium_airport,Enshi Xujiaping Airport,30.320299,109.485001,1605,AS,China,CN,Hubei Province,CN-42,42,Enshi (Enshi),1,ZHES,ENH,,,,,,,,,,,,,,,,,,,,,,,
44139,CN-0061,medium_airport,Foshan Shadi Airport,23.0833,113.07,6,AS,China,CN,Guangdong Province,CN-44,44,Foshan (Nanhai),1,ZGFS,FUO,,,,,,,,,,,,,,,,,,,,,,,
313994,ZYFY,medium_airport,Fuyuan Dongji Aiport,48.197219,134.36298,,AS,China,CN,Heilongjiang Province,CN-23,23,Fuyuan,1,ZYFY,FYJ,,,,,,,,,,,,,,,,,,,,,,,
323219,ZWFY,medium_airport,Fuyun Koktokay Airport,46.804169,89.512006,3081,AS,China,CN,Xinjiang Autonomous Region,CN-65,65,Fuyun,1,ZWFY,FYN,,,,,,,,,,,,,,,,,,,,,,,
327348,ZUDC,medium_airport,Daocheng Yading Airport,29.31632,100.060317,14472,AS,China,CN,Sichuan Province,CN-51,51,Garzê (Daocheng),1,ZUDC,DCY,,,,,,,,,,,,,,,,,,,,,,,
327350,ZUKD,medium_airport,Kangding Airport,30.142464,101.73872,14042,AS,China,CN,Sichuan Province,CN-51,51,Garzê (Kangding),1,ZUKD,KGT,,,,,,,,,,,,,,,,,,,,,,,
318152,ZGHC,medium_airport,Hechi Jinchengjiang Airport,24.804344,107.710819,2221,AS,China,CN,Guangxi Autonomous Region,CN-45,45,Hechi (Jinchengjiang),1,ZGHC,HCJ,,,,,,,,,,,,,,,,,,,,,,,
327349,ZYDU,medium_airport,Wudalianchi Dedu Airport,48.441037,126.128374,984,AS,China,CN,Heilongjiang Province,CN-23,23,Heihe,1,ZYDU,DTU,,,,,,,,,,,,,,,,,,,,,,,
352633,ZSHZ,medium_airport,Heze Mudan Airport,35.212972,115.736748,,AS,China,CN,Shandong Province,CN-37,37,Heze,1,ZSHZ,HZA,,,,,,,,,,,,,,,,,,,,,,,
327443,ZBHZ,medium_airport,Holingol Huolinhe Airport,45.487222,119.407222,,AS,China,CN,Inner Mongolia Autonomous Region,CN-15,15,Holingol,1,ZBHZ,HUO,,,,,,,,,,,,,,,,,,,,,,,
300863,HIA,medium_airport,Huai'an Lianshui International Airport,33.790833,119.125,28,AS,China,CN,Jiangsu Province,CN-32,32,Huai'an,1,ZSSH,HIA,,,,,,,,,,,,,,,,,,,,,,,
300890,ZGCJ,medium_airport,Huaihua Zhijiang Airport,27.443087,109.704666,882,AS,China,CN,Hunan Province,CN-43,43,Huaihua,1,ZGCJ,HJJ,,,,,,,,,,,,,,,,,,,,,,,
44146,CN-0068,medium_airport,Huizhou Pingtan Airport,23.049999,114.599998,50,AS,China,CN,Guangdong Province,CN-44,44,Huizhou (Pingtan),1,ZGHZ,HUZ,,,,,,,,,,,,,,,,,,,,,,,
327450,ZYJS,medium_airport,Jiansanjiang Shidi Airport,47.108248,132.65792,,AS,China,CN,Heilongjiang Province,CN-23,23,Jiansanjiang,1,ZYJS,JSJ,,,,,,,,,,,,,,,,,,,,,,,
31695,ZSJD,medium_airport,Jingdezhen Luojia Airport,29.3386,117.176003,112,AS,China,CN,Jiangxi Province,CN-36,36,Jingdezhen,1,ZSJD,JDZ,,,,,,,,,,,,,,,,,,,,,,,
347636,ZHJZ,medium_airport,Jingzhou Shashi Airport,30.29281,112.44854,95,AS,China,CN,Hubei Province,CN-42,42,Jingzhou (Shashi),1,ZHJZ,SHS,,,,,,,,,,,,,,,,,,,,,,,
300515,ZLJN,medium_airport,Jining Qufu Airport,35.292778,116.346667,134,AS,China,CN,Shandong Province,CN-37,37,Jining,1,ZSJG,JNG,,,,,,,,,,,,,,,,,,,,,,,
313337,ZYJX,medium_airport,Jixi Xingkaihu Airport,45.293,131.193,760,AS,China,CN,Heilongjiang Province,CN-23,23,Jixi,1,ZYJX,JXA,,,,,,,,,,,,,,,,,,,,,,,
313427,ZUKJ,medium_airport,Kaili Huangping Airport,26.972,107.988,3115,AS,China,CN,Guizhou Province,CN-52,52,Kaili  (Huangping),1,ZUKJ,KJH,,,,,,,,,,,,,,,,,,,,,,,
317861,ZYYK,medium_airport,Yingkou Lanqi Airport,40.542524,122.3586,,AS,China,CN,Liaoning Province,CN-21,21,"Laobian, Yingkou",1,ZYYK,YKH,,,,,,,,,,,,,,,,,,,,,,,
44167,CN-0089,medium_airport,Lianyungang Huaguoshan International Airport,34.41406,119.17899,,AS,China,CN,Jiangsu Province,CN-32,32,Lianyungang,1,ZSLG,LYG,,,,,,,,,,,,,,,,,,,,,,,
327447,ZPCW,medium_airport,Cangyuan Washan Airport,23.276331,99.373169,,AS,China,CN,Yunnan Province,CN-53,53,Lincang (Cangyuan),1,ZPCW,CWJ,,,,,,,,,,,,,,,,,,,,,,,
323216,ZBLF,medium_airport,Linfen Yaodu Airport,36.132629,111.641236,1483,AS,China,CN,Shanxi Province,CN-14,14,Linfen (Yaodu),1,ZBLF,LFQ,,,,,,,,,,,,,,,,,,,,,,,
339959,JNZ,medium_airport,Jinzhou Bay Airport,40.936032,121.277114,,AS,China,CN,Liaoning Province,CN-21,21,"Linghai, Jinzhou",1,ZYJZ,JNZ,,,,,,,,,,,,,,,,,,,,,,,
308782,ZUNP,medium_airport,Liping Airport,26.32217,109.1499,1620,AS,China,CN,Guizhou Province,CN-52,52,Liping,1,ZUNP,HZH,,,,,,,,,,,,,,,,,,,,,,,
327352,ZUPS,medium_airport,Liupanshui Yuezhao Airport,26.609417,104.979,,AS,China,CN,Guizhou Province,CN-52,52,Liupanshui (Zhongshan),1,ZUPS,LPF,,,,,,,,,,,,,,,,,,,,,,,
327544,ZLLN,medium_airport,Longnan Chengzhou Airport,33.789918,105.790014,3707,AS,China,CN,Gansu Province,CN-62,62,Longnan (Cheng),1,ZLLN,LNL,,,,,,,,,,,,,,,,,,,,,,,
44234,ZSLD,medium_airport,Longyan Guanzhishan Airport,25.67469978,116.7470016,1225,AS,China,CN,Fujian Province,CN-35,35,Longyan,1,ZSLD,LCX,,,,,,,,,,,,,,,,,,,,,,,
336114,ZULZ,medium_airport,Luzhou Yunlong Airport,29.030357,105.468407,,AS,China,CN,Sichuan Province,CN-51,51,Luzhou (Yunlong),1,ZULZ,LZO,,,,,,,,,,,,,,,,,,,,,,,
319417,ZLHX,medium_airport,Huatugou Airport,38.201645,90.837843,2945,AS,China,CN,Qinghai Province,CN-63,63,Mengnai,1,ZLHX,HTT,,,,,,,,,,,,,,,,,,,,,,,
354840,LZG,medium_airport,Langzhong Gucheng Airport,31.50191,106.034417,1444,AS,China,CN,Sichuan Province,CN-51,51,Nanchong (Langzhong),1,,LZG,,,,,,,,,,,,,,,,,,,,,,,
316547,NLH,medium_airport,Ninglang Luguhu Airport,27.5403,100.7593,10804,AS,China,CN,Yunnan Province,CN-53,53,Ninglang,1,ZPNL,NLH,,,,,,,,,,,,,,,,,,,,,,,
327448,ZPJM,medium_airport,Lancang Jingmai Airport,22.417733,99.784012,,AS,China,CN,Yunnan Province,CN-53,53,Pu'er (Lancang),1,ZPJM,JMJ,,,,,,,,,,,,,,,,,,,,,,,
327451,ZYSQ,medium_airport,Songyuan Chaganhu Airport,44.938114,124.550178,459,AS,China,CN,Jilin Province,CN-22,22,Qian Gorlos Mongol Autonomous County,1,ZYSQ,YSQ,,,,,,,,,,,,,,,,,,,,,,,
300865,JIQ,medium_airport,Qianjiang Wulingshan Airport,29.51333333,108.8311111,2075,AS,China,CN,Chongqing Municipality,CN-50,50,Qianjiang,1,ZUQJ,JIQ,,,,,,,,,,,,,,,,,,,,,,,
31685,ZLQY,medium_airport,Qingyang Xifeng Airport,35.802638,107.598896,,AS,China,CN,Gansu Province,CN-62,62,Qingyang (Xifeng),1,ZLQY,IQN,,,,,,,,,,,,,,,,,,,,,,,
323220,ZJQH,medium_airport,Qionghai Bo'ao Airport,19.140951,110.452766,30,AS,China,CN,Hainan Province,CN-46,46,Qionghai,1,ZJQH,BAR,,,,,,,,,,,,,,,,,,,,,,,
31714,ZSJU,medium_airport,Quzhou Airport,28.965799,118.899002,,AS,China,CN,Zhejiang Province,CN-33,33,Quzhou,1,ZSJU,JUZ,,,,,,,,,,,,,,,,,,,,,,,
333070,ZWRQ,medium_airport,Ruoqiang Loulan Airport,38.974722,88.008333,2916,AS,China,CN,Xinjiang Autonomous Region,CN-65,65,Ruoqiang Town,1,ZWRQ,RQA,,,,,,,,,,,,,,,,,,,,,,,
316774,SQJ,medium_airport,Sanming Shaxian Airport,26.4263,117.8336,830,AS,China,CN,Fujian Province,CN-35,35,Sanming,1,ZSSM,SQJ,,,,,,,,,,,,,,,,,,,,,,,
326731,ZWSC,medium_airport,Shache Airport,38.24542,77.056149,4232,AS,China,CN,Xinjiang Autonomous Region,CN-65,65,Shache,1,ZWSC,QSZ,,,,,,,,,,,,,,,,,,,,,,,
316767,SQD,medium_airport,Shangrao Sanqingshan Airport,28.3797,117.9643,340,AS,China,CN,Jiangxi Province,CN-36,36,Shangrao,1,ZSSR,SQD,,,,,,,,,,,,,,,,,,,,,,,
44157,CN-0079,medium_airport,Shaoguan Danxia Airport,24.9786,113.420998,280,AS,China,CN,Guangdong Province,CN-44,44,Shaoguan,1,ZGSG,HSC,,,,,,,,,,,,,,,,,,,,,,,
327446,ZGSY,medium_airport,Shaoyang Wugang Airport,26.806123,110.641042,1444,AS,China,CN,Hunan Province,CN-43,43,Shaoyang (Wugang),1,ZGSY,WGN,,,,,,,,,,,,,,,,,,,,,,,
319811,ZHSN,medium_airport,Shennongjia Hongping Airport,31.626,110.34,8365,AS,China,CN,Hubei Province,CN-42,42,Shennongjia (Hongping),1,ZHSN,HPG,,,,,,,,,,,,,,,,,,,,,,,
30827,ZYCY,medium_airport,Chaoyang Airport,41.538101,120.434998,568,AS,China,CN,Liaoning Province,CN-21,21,"Shuangta, Chaoyang",1,ZYCY,CHG,,,,,,,,,,,,,,,,,,,,,,,
336110,WUZ,medium_airport,Wuzhou Xijiang Airport,23.40316,111.09331,357,AS,China,CN,Guangxi Autonomous Region,CN-45,45,Tangbu,1,ZGWZ,WUZ,,,,,,,,,,,,,,,,,,,,,,,
44208,CN-0130,medium_airport,Tianshui Maijishan Airport,34.559399,105.860001,3590,AS,China,CN,Gansu Province,CN-62,62,Tianshui (Maiji),1,ZLTS,THQ,,,,,,,,,,,,,,,,,,,,,,,
307013,ZYTN,medium_airport,Tonghua Sanyuanpu Airport,42.25388889,125.7033333,1200,AS,China,CN,Jilin Province,CN-22,22,Tonghua,1,ZYTN,TNH,,,,,,,,,,,,,,,,,,,,,,,
302314,ZUTR,medium_airport,Tongren Fenghuang Airport,27.883333,109.308889,,AS,China,CN,Guizhou Province,CN-52,52,Tongren (Daxing),1,ZUTR,TEN,,,,,,,,,,,,,,,,,,,,,,,
314799,ZWTL,medium_airport,Turpan Jiaohe Airport,43.0308,89.0987,934,AS,China,CN,Xinjiang Autonomous Region,CN-65,65,Turpan,1,ZWTL,TLQ,,,,,,,,,,,,,,,,,,,,,,,
327445,ZBUC,medium_airport,Ulanqab Jining Airport,41.130266,113.107274,,AS,China,CN,Inner Mongolia Autonomous Region,CN-15,15,Ulanqab,1,ZBUC,UCB,,,,,,,,,,,,,,,,,,,,,,,
350117,ZUWL,medium_airport,Chongqing Xiannüshan Airport,29.465658,107.693664,1747,AS,China,CN,Chongqing Municipality,CN-50,50,Wulong,1,ZUWL,CQW,,,,,,,,,,,,,,,,,,,,,,,
32683,ZSWY,medium_airport,Nanping Wuyishan Airport,27.7019,118.000999,614,AS,China,CN,Fujian Province,CN-35,35,Wuyishan,1,ZSWY,WUS,,,,,,,,,,,,,,,,,,,,,,,
44122,CN-0046,medium_airport,Xigaze Peace Airport / Shigatse Air Base,29.3519,89.311401,3782,AS,China,CN,Tibet Autonomous Region,CN-54,54,Xigazê (Samzhubzê),1,ZURK,RKZ,,,,,,,,,,,,,,,,,,,,,,,
301647,ZUYI,medium_airport,Xingyi Wanfenglin Airport,25.083423,104.960804,4150,AS,China,CN,Guizhou Province,CN-52,52,Xingyi,1,ZUYI,ACX,,,,,,,,,,,,,,,,,,,,,,,
323907,CN-0067,medium_airport,Xinyang Minggang Airport,32.540819,114.079141,312,AS,China,CN,Henan Province,CN-41,41,Xinyang,1,ZHXY,XAI,,,,,,,,,,,,,,,,,,,,,,,
316548,ZWNL,medium_airport,Xinyuan Nalati Airport,43.4318,83.3786,3050,AS,China,CN,Xinjiang Autonomous Region,CN-65,65,Xinyuan,1,ZWNL,NLT,,,,,,,,,,,,,,,,,,,,,,,
336112,ENY,medium_airport,Yan'an Nanniwan Airport,36.479413,109.464083,,AS,China,CN,Shaanxi Province,CN-61,61,Yan'an (Baota),1,ZLYA,ENY,,,,,,,,,,,,,,,,,,,,,,,
317774,ZSYA,medium_airport,Yangzhou Taizhou Airport,32.5634,119.7198,7,AS,China,CN,Jiangsu Province,CN-32,32,Yangzhou,1,ZSYA,YTY,,,,,,,,,,,,,,,,,,,,,,,
336111,YBP,medium_airport,Yibin Wuliangye Airport,28.858431,104.526157,,AS,China,CN,Sichuan Province,CN-51,51,Yibin (Cuiping),1,ZUYB,YBP,,,,,,,,,,,,,,,,,,,,,,,
307012,ZYLD,medium_airport,Yichun Lindu Airport,47.752056,129.019125,791,AS,China,CN,Heilongjiang Province,CN-23,23,Yichun,1,ZYLD,LDS,,,,,,,,,,,,,,,,,,,,,,,
308238,ZGLG,medium_airport,Yongzhou Lingling Airport,26.338661,111.610043,340,AS,China,CN,Hunan Province,CN-43,43,Yongzhou,1,ZGLG,LLF,,,,,,,,,,,,,,,,,,,,,,,
325171,YYA,medium_airport,Yueyang Sanhe Airport,29.311699,113.281574,230,AS,China,CN,Hunan Province,CN-43,43,Yueyang (Yueyanglou),1,ZGYY,YYA,,,,,,,,,,,,,,,,,,,,,,,
344100,ZGYL,medium_airport,Yulin Fumian Airport,22.438056,110.120833,328,AS,China,CN,Guangxi Autonomous Region,CN-45,45,Yùlín,1,ZGYL,YLX,,,,,,,,,,,,,,,,,,,,,,,
323666,ZBZL,medium_airport,Zhalantun Genghis Khan Airport,47.865942,122.768662,928,AS,China,CN,Inner Mongolia Autonomous Region,CN-15,15,Zhalantun,1,ZBZL,NZL,,,,,,,,,,,,,,,,,,,,,,,
44100,CN-0024,medium_airport,Zhangjiakou Ningyuan Airport,40.738602,114.93,2347,AS,China,CN,Hebei Province,CN-13,13,Zhangjiakou,1,ZBZJ,ZQZ,,,,,,,,,,,,,,,,,,,,,,,
354995,CN-0353,medium_airport,Zhanjiang Wuchuan Airport,21.481667,110.590278,,AS,China,CN,Guangdong Province,CN-44,44,Zhanjiang,1,ZGZJ,ZHA,,,,,,,,,,,,,,,,,,,,,,,
44267,CN-0189,medium_airport,Dandong Langtou Airport,40.0247,124.286003,30,AS,China,CN,Liaoning Province,CN-21,21,"Zhenxing, Dandong",1,ZYDD,DDG,,,,,,,,,,,,,,,,,,,,,,,
308462,ZLZW,medium_airport,Zhongwei Shapotou Airport,37.573125,105.154454,8202,AS,China,CN,Ningxia Autonomous Region,CN-64,64,Zhongwei (Shapotou),1,ZLZW,ZHY,,,,,,,,,,,,,,,,,,,,,,,
327355,ZUMT,medium_airport,Zunyi Maotai Airport,27.81638,106.33268,4068,AS,China,CN,Guizhou Province,CN-52,52,Zunyi,1,ZUMT,WMT,,,,,,,,,,,,,,,,,,,,,,,
35311,ZLAN,closed,Lanzhou City Airport,36.033333,103.86667,5040,AS,China,CN,Gansu Province,CN-62,62,Lanzhou (Chengguan),0,ZLAN,,,,,,,,,,,,,,,,,,,,,,,,
35313,CN-0011,closed,Luzhou Lantian Airport,28.852577,105.392579,,AS,China,CN,Sichuan Province,CN-51,51,Luzhou (Jiangyang),0,,,,,,,,,,,,,,,,,,,,,,,,,
31009,ZLYA,closed,Yan'an Ershilipu Airport,36.636902,109.554001,3100,AS,China,CN,Shaanxi Province,CN-61,61,Yan'an (Baota),0,,,,,,,,,,,,,,,,,,,,,,,,,
44097,CN-0021,medium_airport,Yangcun Air Base,39.37329865,117.0950012,,AS,China,CN,Tianjin Municipality,CN-12,12,,0,,,,,,,,,,,,,,,,,,,,,,,,,
44089,CN-0013,medium_airport,Fengning Air Base,41.26079941,116.6179962,,AS,China,CN,Hebei Province,CN-13,13,,0,,,,,,,,,,,,,,,,,,,,,,,,,
44149,CN-0071,medium_airport,Leiyang Air Base,26.58720016,112.8919983,,AS,China,CN,Hunan Province,CN-43,43,,0,,,,,,,,,,,,,,,,,,,,,,,,,
44124,CN-0048,medium_airport,Wenshan Air Base,23.71559906,103.8270035,,AS,China,CN,Yunnan Province,CN-53,53,,0,,,,,,,,,,,,,,,,,,,,,,,,,
354040,CN-0321,medium_airport,Anji Tianzihu General Airport,30.797725,119.590287,137,AS,China,CN,Zhejiang Province,CN-33,33,Anji,0,ZSTZ,,,,,,,,,,,,,,,,,,,,,,,,
44213,CN-0135,medium_airport,Ürümqi Changji Air Base,43.951175,87.079232,2425,AS,China,CN,Xinjiang Autonomous Region,CN-65,65,Ashilixiang,0,,,,,,,,,,,,,,,,,,,,,,,,,
44192,CN-0114,medium_airport,Baoji Air Base,34.53125,107.470679,,AS,China,CN,Shaanxi Province,CN-61,61,Baoji (Fengxiang),0,,,,,,,,,,,,,,,,,,,,,,,,,
44082,CN-0006,medium_airport,Beijing Shahezhen Air Base,40.14916611,116.3213882,,AS,China,CN,Beijing Municipality,CN-11,11,Beijing,0,,,,,,,,,,,,,,,,,,,,,,,,,
44083,CN-0007,medium_airport,Beijing Tongxian Air Base,39.81111145,116.7083359,,AS,China,CN,Beijing Municipality,CN-11,11,Beijing,0,,,,,,,,,,,,,,,,,,,,,,,,,
44092,CN-0016,medium_airport,Liangxiangzhen Air Base,39.75780106,116.1259995,,AS,China,CN,Beijing Municipality,CN-11,11,Beijing,0,,,,,,,,,,,,,,,,,,,,,,,,,
301883,ZSBB,medium_airport,Bengbu Airport,32.84773333,117.3202444,100,AS,China,CN,Anhui Province,CN-34,34,Bengbu,0,ZSBB,BFU,,,,,,,,,,,,,,,,,,,,,,,
44168,CN-0090,medium_airport,Cangxian Air Base,38.403025,116.930924,,AS,China,CN,Hebei Province,CN-13,13,Cangzhou,0,,,,,,,,,,,,,,,,,,,,,,,,,
44133,CN-0055,medium_airport,Changsha Datuopu Airport / Changsha Air Base,28.068522,112.957306,170,AS,China,CN,Hunan Province,CN-43,43,Changsha (Tianxin),0,ZGCS,,,,,,,,,,,,,,,,,,,,,,,,
353995,CN-0317,medium_airport,Liyang Tianmuhu General Airport,31.53904,119.502554,54,AS,China,CN,Jiangsu Province,CN-32,32,Changzhou,0,,,,,,,,,,,,,,,,,,,,,,,,,
44279,CN-0201,medium_airport,Pingquan Air Base,40.900409,118.677878,,AS,China,CN,Hebei Province,CN-13,13,Chengde,0,,,,,,,,,,,,,,,,,,,,,,,,,
351149,HZU,medium_airport,Chengdu Huaizhou Airport,30.677339,104.529397,1453,AS,China,CN,Sichuan Province,CN-51,51,Chengdu (Jintang),0,,HZU,,,,,,,,,,,,,,,,,,,,,,,
44121,CN-0045,medium_airport,Qionglai Air Base,30.49099,103.466139,,AS,China,CN,Sichuan Province,CN-51,51,Chengdu (Qionglai),0,,,,,,,,,,,,,,,,,,,,,,,,,
44265,CN-0187,closed,Former Chifeng Airport,42.234587,118.906746,,AS,China,CN,Inner Mongolia Autonomous Region,CN-15,15,Chifeng,0,,,,,,,,,,,,,,,,,,,,,,,,,
44106,CN-0030,medium_airport,Chongqing Baishiyi Air Base,29.4953,106.359001,,AS,China,CN,Chongqing Municipality,CN-50,50,Chongqing,0,,,,,,,,,,,,,,,,,,,,,,,,,
44127,CN-0012,medium_airport,Yuanmou Air Base,25.737499,101.882004,3810,AS,China,CN,Yunnan Province,CN-53,53,Chuxiong (Yuanmou),0,ZPYM,YUA,,,,,,,,,,,,,,,,,,,,,,,
32753,ZYYY,medium_airport,Shenyang Dongta Airport,41.784401,123.496002,,AS,China,CN,Liaoning Province,CN-21,21,"Dadong, Shenyang",0,ZYYY,,,,,,,,,,,,,,,,,,,,,,,,
44125,CN-0049,medium_airport,Xiangyun Midu Air Base,25.445299,100.735001,,AS,China,CN,Yunnan Province,CN-53,53,Dali (Xiangyun),0,,,,,,,,,,,,,,,,,,,,,,,,,
44227,CN-0149,medium_airport,Fuzhou Air Base,26.0044,119.311996,,AS,China,CN,Fujian Province,CN-35,35,Fuzhou,0,,,,,,,,,,,,,,,,,,,,,,,,,
44236,CN-0158,medium_airport,Longtian Air Base,25.5728,119.459999,13,AS,China,CN,Fujian Province,CN-35,35,Fuzhou (Fuqing),0,,,,,,,,,,,,,,,,,,,,,,,,,
44216,CN-0138,medium_airport,Xincheng Air Base,25.5483,114.619003,,AS,China,CN,Jiangxi Province,CN-36,36,Ganzhou,0,,,,,,,,,,,,,,,,,,,,,,,,,
44141,CN-0063,medium_airport,Guiping Mengxu Air Base,23.330799,110.009003,171,AS,China,CN,Guangxi Autonomous Region,CN-45,45,Guiping (Guigang),0,,,,,,,,,,,,,,,,,,,,,,,,,
300741,ZLGY,medium_airport,Guyuan Liupanshan Airport,36.078889,106.216944,5696,AS,China,CN,Ningxia Autonomous Region,CN-64,64,Guyuan (Yuanzhou),0,ZLGY,GYU,,,,,,,,,,,,,,,,,,,,,,,
44231,CN-0153,medium_airport,Hangzhou Jianqiao Airport,30.3353,120.240997,,AS,China,CN,Zhejiang Province,CN-33,33,Hangzhou,0,,,,,,,,,,,,,,,,,,,,,,,,,
44172,CN-0094,medium_airport,Jiugucheng Air Base,37.491153,116.116726,75,AS,China,CN,Hebei Province,CN-13,13,Hengshui,0,,,,,,,,,,,,,,,,,,,,,,,,,
44090,CN-0014,medium_airport,Hohhot Bikeqi Air Base,40.737015,111.229749,,AS,China,CN,Inner Mongolia Autonomous Region,CN-15,15,Hohhot,0,,,,,,,,,,,,,,,,,,,,,,,,,
44119,CN-0043,medium_airport,Honghe Mengzi Airport / Mengzi Air Base,23.3953,103.334,,AS,China,CN,Yunnan Province,CN-53,53,Honghe,0,,,,,,,,,,,,,,,,,,,,,,,,,
44211,CN-0133,medium_airport,Uxxaktal Air Base,42.1814,87.188103,,AS,China,CN,Xinjiang Autonomous Region,CN-65,65,"Hoxud, Bayingolin",0,,,,,,,,,,,,,,,,,,,,,,,,,
44282,CN-0204,medium_airport,Shenyang Beiling Air Base,41.8708,123.439003,,AS,China,CN,Liaoning Province,CN-21,21,"Huanggu, Shenyang",0,,,,,,,,,,,,,,,,,,,,,,,,,
44287,CN-0209,medium_airport,Suizhong Air Base,40.298992,120.36152,43,AS,China,CN,Liaoning Province,CN-21,21,Huludao,0,,,,,,,,,,,,,,,,,,,,,,,,,
339961,CN-0121,medium_airport,Huangdicun Naval Air Base,40.49979,120.659295,97,AS,China,CN,Liaoning Province,CN-21,21,Huludao,0,,,,,,,,,,,,,,,,,,,,,,,,,
44170,CN-0092,medium_airport,Jiaozhou Jiaocheng Air Base,36.331163,120.025538,62,AS,China,CN,Shandong Province,CN-37,37,"Jiaozhou, Qingdao",0,,,,,,,,,,,,,,,,,,,,,,,,,
44094,CN-0018,medium_airport,Tangguantun Air Base,38.781101,117.068001,,AS,China,CN,Tianjin Municipality,CN-12,12,Jinghai,0,,,,,,,,,,,,,,,,,,,,,,,,,
43974,CN-JNZ,medium_airport,Sanshilipu Air Base,39.289671,121.762195,,AS,China,CN,Liaoning Province,CN-21,21,"Jinzhou, Dalian",0,,,,,,,,,,,,,,,,,,,,,,,,,
44268,CN-0190,medium_airport,Dingxin-Shuangchengzi Air Base,40.401402,99.789398,,AS,China,CN,Gansu Province,CN-62,62,Jiuquan (Jinta),0,,,,,,,,,,,,,,,,,,,,,,,,,
44205,CN-0127,medium_airport,Qingshui Air Base,39.554699,98.884201,,AS,China,CN,Gansu Province,CN-62,62,Jiuquan (Suzhou),0,,,,,,,,,,,,,,,,,,,,,,,,,
354508,CN-0330,closed,Jiuquan Suzhou Airport (under construction),39.887874,98.707352,,AS,China,CN,Gansu Province,CN-62,62,Jiuquan (Suzhou),0,,,,,,,,,,,,,,,,,,,,,,,,,
354509,CN-0331,medium_airport,Jiuzhou Airport,26.998259,107.759571,,AS,China,CN,Guizhou Province,CN-52,52,Jiuzhou,0,,,,,,,,,,,,,,,,,,,,,,,,,
44173,CN-0095,medium_airport,Kaifeng Air Base,34.75389862,114.3389969,,AS,China,CN,Henan Province,CN-41,41,Kaifeng,0,,,,,,,,,,,,,,,,,,,,,,,,,
44201,CN-0123,medium_airport,Lanzhou Air Base,35.917801,104.218002,,AS,China,CN,Gansu Province,CN-62,62,Lanzhou (Yuzhong),0,,,,,,,,,,,,,,,,,,,,,,,,,
44135,CN-0057,medium_airport,Foluo Northeast Air Base,18.6922,109.161003,,AS,China,CN,Hainan Province,CN-46,46,Ledong Li Autonomous County (Da'anzhen),0,,,,,,,,,,,,,,,,,,,,,,,,,
44147,CN-0069,medium_airport,Jialaishi Air Base,19.697201,109.725998,,AS,China,CN,Hainan Province,CN-46,46,Lingao,0,,,,,,,,,,,,,,,,,,,,,,,,,
44150,CN-0072,medium_airport,Lingshui Air Base,18.4944,109.987999,,AS,China,CN,Hainan Province,CN-46,46,Lingshui Li Autonomous County,0,,,,,,,,,,,,,,,,,,,,,,,,,
44096,CN-0020,medium_airport,Wenshui Air Base,37.407799,111.966003,,AS,China,CN,Shanxi Province,CN-14,14,Lüliang,0,,,,,,,,,,,,,,,,,,,,,,,,,
44288,CN-0210,medium_airport,Tuchengzi Air Base,38.912201,121.238998,,AS,China,CN,Liaoning Province,CN-21,21,"Lüshunkou, Dalian",0,,,,,,,,,,,,,,,,,,,,,,,,,
44241,CN-0163,medium_airport,Nanchang Xiangtang Air Base,28.421205,115.923375,75,AS,China,CN,Jiangxi Province,CN-36,36,Nanchang,0,,,,,,,,,,,,,,,,,,,,,,,,,
44131,CN-0053,medium_airport,Baihe Ningming Air Base,22.120481,107.125046,,AS,China,CN,Guangxi Autonomous Region,CN-45,45,Ningming,0,,,,,,,,,,,,,,,,,,,,,,,,,
43973,CN-0004,medium_airport,Pulandian Air Base,39.450901,122.017998,,AS,China,CN,Liaoning Province,CN-21,21,"Pulandian, Dalian",0,,,,,,,,,,,,,,,,,,,,,,,,,
44275,CN-0197,medium_airport,Kaiyuan Air Base,42.525799,123.982002,,AS,China,CN,Liaoning Province,CN-21,21,"Qinghe, Tieling",0,,,,,,,,,,,,,,,,,,,,,,,,,
44117,CN-0041,medium_airport,Luliang Air Base,24.988192,103.642833,,AS,China,CN,Yunnan Province,CN-53,53,Qujing (Luliang),0,,,,,,,,,,,,,,,,,,,,,,,,,
32235,ZSRG,medium_airport,Rugao Air Base,32.25788498,120.5016556,,AS,China,CN,Jiangsu Province,CN-32,32,Rugao,0,ZSRG,RUG,,,,,,,,,,,,,,,,,,,,,,,
324349,CN-0074,medium_airport,Shangqiu Air Base,34.449507,115.459261,,AS,China,CN,Henan Province,CN-41,41,Shangqiu,0,,,,,,,,,,,,,,,,,,,,,,,,,
32406,ZWSS,medium_airport,Shanshan Airport,42.9117012,90.24749756,,AS,China,CN,Xinjiang Autonomous Region,CN-65,65,Shanshan,0,ZWSS,SXJ,,,,,,,,,,,,,,,,,,,,,,,
430508,CN-0396,medium_airport,Shaodong Airport,27.2235,111.6741,,AS,China,CN,Hunan Province,CN-43,43,Shaoyang (Shaodong),0,,,,,,,,,,,,,,,,,,,,,,,,,
44091,CN-0015,medium_airport,Huairen Air Base,39.717499,113.142998,3260,AS,China,CN,Shanxi Province,CN-14,14,Shuozhou,0,,,,,,,,,,,,,,,,,,,,,,,,,
44270,CN-0192,medium_airport,Gongzhuling Air Base,43.526293,124.78466,,AS,China,CN,Jilin Province,CN-22,22,Siping,0,,,,,,,,,,,,,,,,,,,,,,,,,
32420,ZSSZ,medium_airport,Suzhou Guangfu Airport,31.2631,120.401001,,AS,China,CN,Jiangsu Province,CN-32,32,Suzhou,0,ZSSZ,SZV,,,,,,,,,,,,,,,,,,,,,,,
353993,CN-0316,medium_airport,Chenghu General Airport,31.215334,120.789328,,AS,China,CN,Jiangsu Province,CN-32,32,Suzhou,0,,,,,,,,,,,,,,,,,,,,,,,,,
44101,CN-0025,medium_airport,Tangshan Zunhua Air Base,40.102501,117.887001,,AS,China,CN,Hebei Province,CN-13,13,Tangshan,0,,,,,,,,,,,,,,,,,,,,,,,,,
354507,CN-0329,closed,Airport (under construction),46.018127,85.655293,,AS,China,CN,Xinjiang Autonomous Region,CN-65,65,Urhu,0,,,,,,,,,,,,,,,,,,,,,,,,,
44210,CN-0132,medium_airport,Ürümqi South Air Base,43.466593,87.531177,,AS,China,CN,Xinjiang Autonomous Region,CN-65,65,Ürümqi,0,,,,,,,,,,,,,,,,,,,,,,,,,
44189,CN-0111,medium_airport,Zhucheng Air Base,36.027468,119.43778,,AS,China,CN,Shandong Province,CN-37,37,Weifang,0,,,,,,,,,,,,,,,,,,,,,,,,,
354658,CN-0345,medium_airport,Shanpo Air Base,30.087612,114.31366,,AS,China,CN,Hubei Province,CN-42,42,Wuhan,0,,,,,,,,,,,,,,,,,,,,,,,,,
354657,CN-0344,medium_airport,Paozhuwan Air Base,30.673944,114.63089,,AS,China,CN,Hubei Province,CN-42,42,Wuhan (Xinzhou),0,,,,,,,,,,,,,,,,,,,,,,,,,
348698,ZSWA,medium_airport,Wuhu Xuanzhou Airport,31.1045,118.66687,80,AS,China,CN,Anhui Province,CN-34,34,Wuhu,0,ZSWA,,,,,,,,,,,,,,,,,,,,,,,,
44215,CN-0137,medium_airport,Xi'an Air Base,34.153059,108.599739,1337,AS,China,CN,Shaanxi Province,CN-61,61,Xi'an (Huyi),0,,,,,,,,,,,,,,,,,,,,,,,,,
44218,CN-0140,medium_airport,Yanliang Air Base,34.642248,109.241867,,AS,China,CN,Shaanxi Province,CN-61,61,Xi'an (Yanliang),0,,,,,,,,,,,,,,,,,,,,,,,,,
31818,ZHGH,medium_airport,Guangzhou MR Air Base / Guanghua Airport,32.38866,111.69425,,AS,China,CN,Hubei Province,CN-42,42,Xiangyang (Laohekou),0,ZHGH,LHK,,,,,,,,,,,,,,,,,,,,,,,
44163,CN-0085,medium_airport,Xiaogan Air Base,30.95359,113.911774,,AS,China,CN,Hubei Province,CN-42,42,Xiaogan (Xiaonan),0,,,,,,,,,,,,,,,,,,,,,,,,,
350882,CN-0236,medium_airport,Xigaze Dingri Airport,28.604567,86.798,14108,AS,China,CN,Tibet Autonomous Region,CN-54,54,Xigazê (Dingri),0,,DDR,,,,,,,,,,,,,,,,,,,,,,,
44269,CN-0191,medium_airport,Fuxin Air Base,42.078899,121.662003,,AS,China,CN,Liaoning Province,CN-21,21,"Xihe, Fuxin",0,,,,,,,,,,,,,,,,,,,,,,,,,
44182,CN-0104,medium_airport,Xingcheng Air Base,40.580328,120.700374,30,AS,China,CN,Liaoning Province,CN-21,21,"Xingcheng, Huludao",0,ZYXC,XEN,,,,,,,,,,,,,,,,,,,,,,,
329666,CN-0083,medium_airport,Guodu Air Base,36.000428,117.625833,,AS,China,CN,Shandong Province,CN-37,37,"Xintai, Tai'an",0,,,,,,,,,,,,,,,,,,,,,,,,,
44232,CN-0154,medium_airport,Jiaxing Airport / Jiaxing Air Base,30.705535,120.679779,17,AS,China,CN,Zhejiang Province,CN-33,33,"Xiuzhou, Hangzhou",0,,,,,,,,,,,,,,,,,,,,,,,,,
44175,CN-0097,medium_airport,Luyang Air Base,33.685434,112.89053,469,AS,China,CN,Henan Province,CN-41,41,Xuchang (Pingdingshan),0,,,,,,,,,,,,,,,,,,,,,,,,,
44184,CN-0106,medium_airport,Xuzhou Daguozhang Air Base,34.229285,117.245665,,AS,China,CN,Jiangsu Province,CN-32,32,Xuzhou,0,,,,,,,,,,,,,,,,,,,,,,,,,
44174,CN-0096,medium_airport,Laiyang Air Base,36.9636,120.591003,,AS,China,CN,Shandong Province,CN-37,37,Yantai,0,,,,,,,,,,,,,,,,,,,,,,,,,
44134,CN-0056,medium_airport,Dangyang Air Base,30.798599,111.809998,,AS,China,CN,Hubei Province,CN-42,42,Yichang (Dangyang),0,,,,,,,,,,,,,,,,,,,,,,,,,
44217,CN-0139,medium_airport,Yaerbashi Test Range,43.077202,92.808098,,AS,China,CN,Xinjiang Autonomous Region,CN-65,65,"Yizhou, Hami",0,,,,,,,,,,,,,,,,,,,,,,,,,
44098,CN-0022,medium_airport,Yongning Air Base,40.50310135,116.1080017,,AS,China,CN,Beijing Municipality,CN-11,11,Yongning,0,,,,,,,,,,,,,,,,,,,,,,,,,
44284,CN-0206,medium_airport,Shenyang Yuhong Quansheng Airport,41.822498,123.299004,,AS,China,CN,Liaoning Province,CN-21,21,"Yuhong, Shenyang",0,,,,,,,,,,,,,,,,,,,,,,,,,
44158,CN-0080,medium_airport,Suixi Air Base,21.3958,110.199997,,AS,China,CN,Guangdong Province,CN-44,44,Zhanjiang (Suixi),0,,,,,,,,,,,,,,,,,,,,,,,,,
44224,CN-0146,medium_airport,Daishan Air Base,30.287581,122.144401,7,AS,China,CN,Zhejiang Province,CN-33,33,Zhoushan,0,,,,,,,,,,,,,,,,,,,,,,,,,
30632,ZLAK,small_airport,Ankang Fuqiang Airport,32.75696,108.87338,1209,AS,China,CN,Shaanxi Province,CN-61,61,Ankang (Hanbin),1,ZLAK,AKA,,,,,,,,,,,,,,,,,,,,,,,
30708,ZGBH,small_airport,Beihai Fucheng Airport,21.5394,109.293999,,AS,China,CN,Guangxi Autonomous Region,CN-45,45,Beihai (Yinhai),1,ZGBH,BHY,,,,,,,,,,,,,,,,,,,,,,,
30830,ZBCZ,small_airport,Changzhi Wangcun Airport,36.247501,113.125999,,AS,China,CN,Shanxi Province,CN-14,14,Changzhi,1,ZBCZ,CIH,,,,,,,,,,,,,,,,,,,,,,,
31769,ZSGZ,small_airport,Ganzhou Huangjin Airport,25.853333,114.778889,387,AS,China,CN,Jiangxi Province,CN-36,36,Ganzhou,1,ZSGZ,KOW,,,,,,,,,,,,,,,,,,,,,,,
31659,ZLHZ,small_airport,Hanzhong Chenggu Airport,33.133527,107.203817,,AS,China,CN,Shaanxi Province,CN-61,61,Hanzhong (Chenggu),1,ZLHZ,HZG,,,,,,,,,,,,,,,,,,,,,,,
32725,ZWYN,small_airport,Yining Airport,43.955799,81.330299,,AS,China,CN,Xinjiang Autonomous Region,CN-65,65,Ili (Yining / Ghulja),1,ZWYN,YIN,,,,,,,,,,,,,,,,,,,,,,,
31706,ZYJZ,small_airport,Jinzhou Xiaolingzi Air Base,41.101398,121.061996,,AS,China,CN,Liaoning Province,CN-21,21,Jinzhou,0,,,,,,,,,,,,,,,,,,,,,,,,,
35309,ZSJJ,small_airport,Jiujiang Lushan Airport,29.476944,115.801111,,AS,China,CN,Jiangxi Province,CN-36,36,Jiujiang,1,ZSJJ,JIU,,,,,,,,,,,,,,,,,,,,,,,
35310,ZWKM,small_airport,Karamay Airport,45.46655,84.9527,,AS,China,CN,Xinjiang Autonomous Region,CN-65,65,Karamay,1,ZWKM,KRY,,,,,,,,,,,,,,,,,,,,,,,
31731,ZWKC,small_airport,Kuqa Qiuci Airport,41.677856,82.872917,3524,AS,China,CN,Xinjiang Autonomous Region,CN-65,65,Kuqa,1,ZWKC,KCA,,,,,,,,,,,,,,,,,,,,,,,
32003,ZUNC,small_airport,Nanchong Gaoping Airport,30.798104,106.16415,1145,AS,China,CN,Sichuan Province,CN-51,51,Nanchong (Gaoping),1,ZUNC,NAO,,,,,,,,,,,,,,,,,,,,,,,
32041,ZHNY,small_airport,Nanyang Jiangying Airport,32.982696,112.617467,840,AS,China,CN,Henan Province,CN-41,41,Nanyang (Wancheng),1,ZHNY,NNY,,,,,,,,,,,,,,,,,,,,,,,
32417,ZPSM,small_airport,Pu'er Simao Airport,22.793301,100.959,,AS,China,CN,Yunnan Province,CN-53,53,Pu'er,1,ZPSM,SYM,,,,,,,,,,,,,,,,,,,,,,,
35315,ZBUL,small_airport,Ulanhot Yilelite Airport,46.195333,122.008333,,AS,China,CN,Inner Mongolia Autonomous Region,CN-15,15,Ulanhot,1,ZBUL,HLH,,,,,,,,,,,,,,,,,,,,,,,
32688,ZUWX,small_airport,Wanzhou Wuqiao Airport,30.8017,108.433,,AS,China,CN,Chongqing Municipality,CN-50,50,Wanzhou,1,ZUWX,WXN,,,,,,,,,,,,,,,,,,,,,,,
32563,ZLYL,small_airport,Yulin Yuyang Airport,38.35971,109.590927,,AS,China,CN,Shaanxi Province,CN-61,61,Yulin,1,ZLYL,UYN,,,,,,,,,,,,,,,,,,,,,,,
32740,ZPZT,small_airport,Zhaotong Airport,27.327549,103.75617,,AS,China,CN,Yunnan Province,CN-53,53,Zhaotong (Zhaoyang),1,ZPZT,ZAT,,,,,,,,,,,,,,,,,,,,,,,
31624,ZSZS,small_airport,Zhoushan Putuoshan Airport,29.9342,122.362,3,AS,China,CN,Zhejiang Province,CN-33,33,Zhoushan,1,ZSZS,HSN,,,,,,,,,,,,,,,,,,,,,,,
354654,ZWAL,small_airport,Aral Tarim Airport,40.464167,81.246944,,AS,China,CN,Xinjiang Autonomous Region,CN-65,65,Aral,1,ZWAL,ACF,,,,,,,,,,,,,,,,,,,,,,,
314557,RHT,small_airport,Alxa Right Banner Badanjilin Airport,39.225,101.546,4659,AS,China,CN,Inner Mongolia Autonomous Region,CN-15,15,Badanjilin,1,ZBAR,RHT,,,,,,,,,,,,,,,,,,,,,,,
323881,CN-0062,small_airport,Bazhong Enyang Airport,31.73842,106.644872,1804,AS,China,CN,Sichuan Province,CN-51,51,Bazhong (Enyang),1,ZUBZ,BZX,,,,,,,,,,,,,,,,,,,,,,,
308641,JUH,small_airport,Chizhou Jiuhuashan Airport,30.7403,117.6856,60,AS,China,CN,Anhui Province,CN-34,34,Chizhou,1,ZSJH,JUH,,,,,,,,,,,,,,,,,,,,,,,
300323,DQA,small_airport,Daqing Sa'ertu Airport,46.750883,125.138642,496,AS,China,CN,Heilongjiang Province,CN-23,23,Daqing,1,ZYDQ,DQA,,,,,,,,,,,,,,,,,,,,,,,
318171,ZLDL,small_airport,Delingha Airport,37.125286,97.268658,9843,AS,China,CN,Qinghai Province,CN-63,63,Delingha,1,ZLDL,HXD,,,,,,,,,,,,,,,,,,,,,,,
314559,EJN,small_airport,Ejin Banner Taolai Airport,42.0155,101.0005,3077,AS,China,CN,Inner Mongolia Autonomous Region,CN-15,15,Ejin Banner,1,ZBEN,EJN,,,,,,,,,,,,,,,,,,,,,,,
336107,ZUGZ,small_airport,Garze Gesar Airport,31.7575,99.554167,,AS,China,CN,Sichuan Province,CN-51,51,Garzê (Garzê),1,ZUGZ,GZG,,,,,,,,,,,,,,,,,,,,,,,
333096,HBQ,small_airport,Haibei Qilian Airport,38.008068,100.645065,10377,AS,China,CN,Qinghai Province,CN-63,63,Haibei (Qilian),1,ZLHB,HBQ,,,,,,,,,,,,,,,,,,,,,,,
31610,ZGHY,small_airport,Hengyang Nanyue Airport,26.72208,112.617958,,AS,China,CN,Hunan Province,CN-43,43,Hengyang,1,ZGHY,HNY,,,,,,,,,,,,,,,,,,,,,,,
342843,ZWYT,small_airport,Yutian Wanfang Airport,36.8085,81.7827,4731,AS,China,CN,Xinjiang Autonomous Region,CN-65,65,Hotan (Yutian),1,ZWYT,YTW,,,,,,,,,,,,,,,,,,,,,,,
301010,JIC,small_airport,Jinchang Jinchuan Airport,38.542222,102.348333,4740,AS,China,CN,Gansu Province,CN-62,62,Jinchang,1,ZLJC,JIC,,,,,,,,,,,,,,,,,,,,,,,
332207,XRQ,small_airport,New Barag Right Banner Baogede Airport,48.575585,116.939382,1798,AS,China,CN,Inner Mongolia Autonomous Region,CN-15,15,New Barag Right Banner,1,,XRQ,,,,,,,,,,,,,,,,,,,,,,,
327351,ZULB,small_airport,Libo Airport,25.4525,107.961667,,AS,China,CN,Guizhou Province,CN-52,52,Qiannan (Libo),1,ZULB,LLB,,,,,,,,,,,,,,,,,,,,,,,
32745,ZJYX,small_airport,Yongxing Dao (Woody Island) Airport,16.8328,112.344002,,AS,China,CN,Hainan Province,CN-46,46,Sansha (Yongxing Dao / Woody Island),1,ZJYX,XYI,,,,,,,,,,,,,,,,,,,,,,,
316764,ZGHU,small_airport,Shihezi Huayuan Airport,44.2421,85.8905,1700,AS,China,CN,Xinjiang Autonomous Region,CN-65,65,Shihezi,1,ZWHZ,SHF,,,,,,,,,,,,,,,,,,,,,,,
28144,ZWTC,small_airport,Tacheng Airport,46.672501,83.340797,,AS,China,CN,Xinjiang Autonomous Region,CN-65,65,Tacheng,1,ZWTC,TCG,,,,,,,,,,,,,,,,,,,,,,,
43975,CN-0005,small_airport,Tangshan Sannühe Airport,39.71780014,118.0026245,50,AS,China,CN,Hebei Province,CN-13,13,Tangshan,1,ZBTS,TVS,,,,,,,3566,AS,China,CN,Xinjiang Autonomous Region,CN-65,65,Tumxuk,1,ZWTS,TWC,TWC,,https://en.wikipedia.org/wiki/Tumxuk_Tangwangcheng_Airport,,100,2021-04-11T20:59:12+00:00
318119,ZPWS,small_airport,Wenshan Puzhehei Airport,23.5583,104.3255,5217,AS,China,CN,Yunnan Province,CN-53,53,Wenshan,1,ZPWS,WNH,,,,,,,,,,,,,,,,,,,,,,,
308728,ZBUH,small_airport,Wuhai Airport,39.7934,106.7993,3650,AS,China,CN,Inner Mongolia Autonomous Region,CN-15,15,Wuhai,1,ZBUH,WUA,,,,,,,,,,,,,,,,,,,,,,,
336105,ZUWS,small_airport,Chongqing Wushan Airport,31.06896,109.708958,,AS,China,CN,Chongqing Municipality,CN-50,50,Wushan,1,ZUWS,WSK,,,,,,,,,,,,,,,,,,,,,,,
323217,ZBXZ,small_airport,Xinzhou Wutaishan Airport,38.597456,112.969173,2527,AS,China,CN,Shanxi Province,CN-14,14,Xinzhou,1,ZBXZ,WUT,,,,,,,,,,,,,,,,,,,,,,,
44221,CN-0143,small_airport,Zhangye Ganzhou Airport,38.801899,100.675003,5280,AS,China,CN,Gansu Province,CN-62,62,Zhangye (Ganzhou),1,ZLZY,YZY,,,,,,,,,,,,,,,,,,,,,,,
355951,CN-0358,small_airport,(Duplicate)Zhaosu Tianma Airport,0.01,0.01,,AS,China,CN,Xinjiang Autonomous Region,CN-65,65,Zhaosu,1,,,,,,,,,,,,,,,,,,,,,,,,,
355952,CN-0359,small_airport,Zhaosu Tianma Airport,43.1075,81.160556,,AS,China,CN,Xinjiang Autonomous Region,CN-65,65,Zhaosu,1,ZWZS,ZFL,,,,,,,,,,,,,,,,,,,,,,,
354535,CN-0339,closed,Parking Space (old runway),26.081898,119.604732,,AS,China,CN,Fujian Province,CN-35,35,,0,,,,,,,,,,,,,,,,,,,,,,,,,
354648,CN-0341,small_airport,Private Runway,37.234774,79.34206,,AS,China,CN,Xinjiang Autonomous Region,CN-65,65,,0,,,,,,,,,,,,,,,,,,,,,,,,,
354650,CN-0342,small_airport,Military Heliport Runway (8x),36.343009,78.033335,,AS,China,CN,Xinjiang Autonomous Region,CN-65,65,,0,,,,,,,,,,,,,,,,,,,,,,,,,
354660,CN-0346,small_airport,Desert Runway,39.010014,83.608618,,AS,China,CN,Xinjiang Autonomous Region,CN-65,65,,0,,,,,,,,,,,,,,,,,,,,,,,,,
354929,CN-0351,small_airport,Deser Military Airport,40.767539,89.275245,,AS,China,CN,Xinjiang Autonomous Region,CN-65,65,,0,,,,,,,,,,,,,,,,,,,,,,,,,
354931,CN-0352,small_airport,Old Runway,40.694827,89.075604,,AS,China,CN,Xinjiang Autonomous Region,CN-65,65,,0,,,,,,,,,,,,,,,,,,,,,,,,,
349470,CN-0226,small_airport,Aksu Zhicheng Airport,40.990059,80.094509,3629,AS,China,CN,Xinjiang Autonomous Region,CN-65,65,Aksu,0,,,,,,,,,,,,,,,,,,,,,,,,,
342841,CN-0166,small_airport,Alar Lanpowan Airport,40.640982,81.273888,3314,AS,China,CN,Xinjiang Autonomous Region,CN-65,65,Alar,0,,,,,,,,,,,,,,,,,,,,,,,,,
348697,CN-0223,small_airport,Tai'an Xinkaihe Airport,41.3282,122.45557,26,AS,China,CN,Liaoning Province,CN-21,21,Anshan,0,,,,,,,,,,,,,,,,,,,,,,,,,
318172,CN-0054,small_airport,Baoding Huangzhang Airport,38.83359,115.521626,,AS,China,CN,Hebei Province,CN-13,13,Baoding,0,,,,,,,,,,,,,,,,,,,,,,,,,
348154,CN-0180,small_airport,Xishanbei Airport,39.14996,115.28795,,AS,China,CN,Hebei Province,CN-13,13,Baoding,0,,,,,,,,,,,,,,,,,,,,,,,,,
348155,CN-0181,small_airport,Dingxing Airport,39.25469,115.83329,,AS,China,CN,Hebei Province,CN-13,13,Baoding,0,,,,,,,,,,,,,,,,,,,,,,,,,
348156,CN-0184,small_airport,Gaobeidian Airport,39.36942,115.93992,,AS,China,CN,Hebei Province,CN-13,13,Baoding,0,,,,,,,,,,,,,,,,,,,,,,,,,
348157,CN-0186,small_airport,Zhuozhou Airport,39.45692,116.00091,,AS,China,CN,Hebei Province,CN-13,13,Baoding,0,,,,,,,,,,,,,,,,,,,,,,,,,
348151,CN-0179,small_airport,Baoji Lingyuan General Aviation Airport,34.38946,107.12865,2635,AS,China,CN,Shaanxi Province,CN-61,61,Baoji (Jintai),0,,,,,,,,,,,,,,,,,,,,,,,,,
354512,CN-0333,small_airport,Bayannur Ming'an Airport,40.874146,109.577272,,AS,China,CN,Inner Mongolia Autonomous Region,CN-15,15,Bayannur,0,,,,,,,,,,,,,,,,,,,,,,,,,
355962,CN-0361,small_airport,Dengkou General Aviation Airport,40.302832,107.010698,3458,AS,China,CN,Inner Mongolia Autonomous Region,CN-15,15,Bayannur,0,ZBMV,,,,,,,,,,,,,,,,,,,,,,,,
355921,CN-0357,small_airport,Beijing Dingling Airport,40.28566,116.232675,351,AS,China,CN,Beijing Municipality,CN-11,11,Beijing,0,,,,,,,,,,,,,,,,,,,,,,,,,
350987,CN-0279,small_airport,Beitun Fengqing Airport,47.22734,87.84022,1768,AS,China,CN,Xinjiang Autonomous Region,CN-65,65,Beitun,0,,,,,,,,,,,,,,,,,,,,,,,,,
348696,CN-0222,small_airport,Binhai Douzhuang Airport,38.56417,117.31323,7,AS,China,CN,Tianjin Municipality,CN-12,12,Binhai,0,,,,,,,,,,,,,,,,,,,,,,,,,
348690,CN-0218,small_airport,Binzhou Daguo Airport,37.61055,117.88556,25,AS,China,CN,Shandong Province,CN-37,37,Binzhou,0,,,,,,,,,,,,,,,,,,,,,,,,,
350990,CN-0282,small_airport,Burqin Kaerqisi Airport,47.6805,86.92763,1598,AS,China,CN,Xinjiang Autonomous Region,CN-65,65,Burqin,0,,,,,,,,,,,,,,,,,,,,,,,,,
348695,CN-0221,small_airport,Huanghua Fanghuang Airport,38.41903,117.29877,13,AS,China,CN,Hebei Province,CN-13,13,Cangzhou,0,,,,,,,,,,,,,,,,,,,,,,,,,
348167,CN-0203,small_airport,Datun Air Base,43.73361,125.25333,,AS,China,CN,Jilin Province,CN-22,22,Changchun,0,,,,,,,,,,,,,,,,,,,,,,,,,
356372,CN-0377,small_airport,Changchun Yushu General Airport,44.829507,126.421423,,AS,China,CN,Jilin Province,CN-22,22,Changchun (Yushu),0,,,,,,,,,,,,,,,,,,,,,,,,,
335267,CN-0099,small_airport,Chaor Airstrip,48.425954,121.387768,3012,AS,China,CN,Inner Mongolia Autonomous Region,CN-15,15,Chaor,0,,,,,,,,,,,,,,,,,,,,,,,,,
350941,CN-0246,small_airport,Chongzhou Haoyun General Airport,30.560102,103.730721,1645,AS,China,CN,Sichuan Province,CN-51,51,Chengdu (Chongzhou),0,,,,,,,,,,,,,,,,,,,,,,,,,
350939,CN-0244,small_airport,Chengdu Fenghuangshan Air Base,30.73019,104.09282,1660,AS,China,CN,Sichuan Province,CN-51,51,Chengdu (Jinniu),0,,,,,,,,,,,,,,,,,,,,,,,,,
350940,CN-0245,small_airport,Chengdu Taipingsi Airport,30.60321,104.01766,1616,AS,China,CN,Sichuan Province,CN-51,51,Chengdu (Wuhou),0,,,,,,,,,,,,,,,,,,,,,,,,,
350942,CN-0247,small_airport,Chengdu Xinjin Airport,30.4214,103.8444,1512,AS,China,CN,Sichuan Province,CN-51,51,Chengdu (Xinjin),0,,,,,,,,,,,,,,,,,,,,,,,,,
330359,AEQ,small_airport,Ar Horqin Airport,43.87042,120.15958,1335,AS,China,CN,Inner Mongolia Autonomous Region,CN-15,15,Chifeng,0,,AEQ,,,,,,,,,,,,,,,,,,,,,,,
347519,YGA,small_airport,Yongchuan Da'an General Airport,29.356667,106.010441,1131,AS,China,CN,Chongqing Municipality,CN-50,50,Chongqing,0,,YGA,,,,,,,,,,,,,,,,,,,,,,,
351130,CN-0287,small_airport,Xiqing Airport,19.55219,109.43658,407,AS,China,CN,Hainan Province,CN-46,46,Danzhou,0,,,,,,,,,,,,,,,,,,,,,,,,,
350852,CN-0229,small_airport,Datong Qingshuihe Air Base,39.93824,113.40345,3340,AS,China,CN,Shanxi Province,CN-14,14,Datong,0,,,,,,,,,,,,,,,,,,,,,,,,,
352223,DZH,small_airport,Dazhou Jinya Airport,31.048815,107.435646,,AS,China,CN,Sichuan Province,CN-51,51,Dazhou (Dachuan),0,,DZH,,,,,,,,,,,,,,,,,,,,,,,
44110,CN-0034,small_airport,Dazu Air Base,29.636227,105.773621,1220,AS,China,CN,Chongqing Municipality,CN-50,50,Dazu,0,ZUDZ,DZU,,,,,,,,,,,,,,,,,,,,,,,
430023,CN-0384,small_airport,Longchuan Guangsong Airport,24.26652,97.9048,3297,AS,China,CN,Yunnan Province,CN-53,53,Dehong (Longchuan),0,,,,,,,,,,,,,,,,,,,,,,,,,
350923,CN-0242,small_airport,Faku Caihu Airport,42.38999,123.36977,286,AS,China,CN,Liaoning Province,CN-21,21,Faku,0,,,,,,,,,,,,,,,,,,,,,,,,,
350989,CN-0281,small_airport,Fuyun Tuerhong Airport,47.03888,89.7825,,AS,China,CN,Xinjiang Autonomous Region,CN-65,65,Fuyun,0,,,,,,,,,,,,,,,,,,,,,,,,,
44137,CN-0059,small_airport,Guangzhou East Airfield,23.1647,113.369003,,AS,China,CN,Guangdong Province,CN-44,44,Guangzhou (Tianhe),0,,,,,,,,,,,,,,,,,,,,,,,,,
342115,CN-0141,small_airport,Guilin Qifengling Airport,25.193836,110.32033,476,AS,China,CN,Guangxi Autonomous Region,CN-45,45,Guilin (Yanshan),0,,,,,,,,,,,,,,,,,,,,,,,,,
323884,CN-0066,small_airport,Guiyang Air Base,26.40994,106.532264,,AS,China,CN,Guizhou Province,CN-52,52,Guiyang (Huaxi),0,,,,,,,,,,,,,,,,,,,,,,,,,
318340,CN-0060,small_airport,Haibei Airport,36.990726,100.857505,,AS,China,CN,Qinghai Province,CN-63,63,Haibei (Haiyan),0,,,,,,,,,,,,,,,,,,,,,,,,,
351131,CN-0288,small_airport,Haikou Jiazi Airport,19.67521,110.37968,131,AS,China,CN,Hainan Province,CN-46,46,Haikou (Ding'an),0,,,,,,,,,,,,,,,,,,,,,,,,,
335266,CN-0098,small_airport,Hailar Southwest Airport,49.164182,119.693685,2031,AS,China,CN,Inner Mongolia Autonomous Region,CN-15,15,Hailar,0,,,,,,,,,,,,,,,,,,,,,,,,,
349471,CN-0227,small_airport,Yizhou Test Range,42.55217,94.21869,2828,AS,China,CN,Xinjiang Autonomous Region,CN-65,65,Hami,0,,,,,,,,,,,,,,,,,,,,,,,,,
350949,CN-0253,small_airport,Jiande Qiandaohu General Airport,29.360905,119.180829,249,AS,China,CN,Zhejiang Province,CN-33,33,Hangzhou,0,,JDE,,,,,,,,,,,,,,,,,,,,,,,
335271,ZYGH,small_airport,Genhe Airport,50.700277,121.3825,2257,AS,China,CN,Inner Mongolia Autonomous Region,CN-15,15,Haolibao,0,ZYGH,,,,,,,,,,,,,,,,,,,,,,,,
44271,CN-0193,small_airport,Harbin Pingfang Airport,45.59886,126.65808,,AS,China,CN,Heilongjiang Province,CN-23,23,Harbin,0,,,,,,,,,,,,,,,,,,,,,,,,,
45045,CN-0008,small_airport,Wanggang Airfield,45.670924,126.521812,,AS,China,CN,Heilongjiang Province,CN-23,23,Harbin,0,,,,,,,,,,,,,,,,,,,,,,,,,
45046,CN-0009,small_airport,Shuangyushu Airfield,45.663982,126.700099,,AS,China,CN,Heilongjiang Province,CN-23,23,Harbin,0,,,,,,,,,,,,,,,,,,,,,,,,,
348168,CN-0205,small_airport,Hefei Luogang Airport,31.77999,117.29833,108,AS,China,CN,Anhui Province,CN-34,34,Hefei,0,,,,,,,,,,,,,,,,,,,,,,,,,
350958,CN-0262,small_airport,Suibin Erjiuling Farm Airport,47.57175,132.13077,197,AS,China,CN,Heilongjiang Province,CN-23,23,Hegang,0,,,,,,,,,,,,,,,,,,,,,,,,,
352494,CN-0306,small_airport,Hegang Luobei Airport,47.6144,131.39497,210,AS,China,CN,Heilongjiang Province,CN-23,23,Hegang,0,,,,,,,,,,,,,,,,,,,,,,,,,
344104,NJJ,small_airport,Nenjiang Melgen Airport,49.236372,125.337052,800,AS,China,CN,Heilongjiang Province,CN-23,23,Heihe,0,,NJJ,,,,,,,,,,,,,,,,,,,,,,,
350954,CN-0258,small_airport,Wudalianchi Xingfu Airport,48.73158,127.37618,1266,AS,China,CN,Heilongjiang Province,CN-23,23,Heihe,0,,,,,,,,,,,,,,,,,,,,,,,,,
350960,CN-0264,small_airport,Wudalianchi Longmen Airport,48.91567,126.91011,1276,AS,China,CN,Heilongjiang Province,CN-23,23,Heihe,0,,,,,,,,,,,,,,,,,,,,,,,,,
350961,CN-0265,small_airport,Wudalianchi Longzhen General Airport,48.65333,126.71333,1004,AS,China,CN,Heilongjiang Province,CN-23,23,Heihe,0,,,,,,,,,,,,,,,,,,,,,,,,,
430022,CN-0383,small_airport,Mile Dongfeng Airport,24.2956,103.40847,,AS,China,CN,Yunnan Province,CN-53,53,Honghe (Mile),0,,,,,,,,,,,,,,,,,,,,,,,,,
44272,CN-0194,small_airport,Jinxi Air Base,40.749199,120.878998,,AS,China,CN,Liaoning Province,CN-21,21,Huludao,0,ZYUH,,,,,,,,,,,,,,,,,,,,,,,,
342426,CN-0157,small_airport,Morin Dawa Banner Airport,48.38745,124.43127,722,AS,China,CN,Inner Mongolia Autonomous Region,CN-15,15,Hulunbuir,0,,DWS,,,,,,,,,,,,,,,,,,,,,,,
44223,CN-0145,small_airport,Changxing Air Base,30.968599,119.731003,,AS,China,CN,Zhejiang Province,CN-33,33,Huzhou,0,,,,,,,,,,,,,,,,,,,,,,,,,
336115,DEQ,small_airport,Deqing Moganshan Airport,30.504264,120.107388,,AS,China,CN,Zhejiang Province,CN-33,33,Huzhou,0,,DEQ,,,,,,,,,,,,,,,,,,,,,,,
350924,CN-0243,small_airport,Qindeli Farm Airport,47.96256,133.18252,246,AS,China,CN,Heilongjiang Province,CN-23,23,Jiamusi,0,,,,,,,,,,,,,,,,,,,,,,,,,
350963,CN-0266,small_airport,Tongjiang Nongjiang Farm Airport,47.736986,133.234103,203,AS,China,CN,Heilongjiang Province,CN-23,23,Jiamusi,0,,,,,,,,,,,,,,,,,,,,,,,,,
350964,CN-0267,small_airport,Jiamusi Sanhetun General Airport,46.79304,130.26974,279,AS,China,CN,Heilongjiang Province,CN-23,23,Jiamusi,0,,,,,,,,,,,,,,,,,,,,,,,,,
44171,CN-0093,small_airport,Jinan Qihe Air Base,36.769139,116.639787,82,AS,China,CN,Shandong Province,CN-37,37,Jinan,0,,,,,,,,,,,,,,,,,,,,,,,,,
348693,CN-0219,small_airport,Jinan Pingyin General Airport,36.29659,116.43959,131,AS,China,CN,Shandong Province,CN-37,37,Jinan,0,,,,,,,,,,,,,,,,,,,,,,,,,
350889,CN-0241,small_airport,Jingmen Zhanghe General Airport,30.985923,112.05368,454,AS,China,CN,Hubei Province,CN-42,42,Jingmen (Dongbao),0,,,,,,,,,,,,,,,,,,,,,,,,,
32296,ZHSS,closed,Former Shashi Airport,30.324289,112.279861,112,AS,China,CN,Hubei Province,CN-42,42,Jingzhou (Shashi),0,ZHSS,,,,,,,,,,,,,,,,,,,,,,,,
350871,CN-0232,small_airport,Xiantao General Airport,30.40678,113.59485,,AS,China,CN,Hubei Province,CN-42,42,Jingzhou (Xiantao),0,,,,,,,,,,,,,,,,,,,,,,,,,
350886,CN-0238,small_airport,Dongyang Hengdian General Airport,29.12513,120.24343,364,AS,China,CN,Zhejiang Province,CN-33,33,Jinhua,0,,,,,,,,,,,,,,,,,,,,,,,,,
44273,CN-0195,small_airport,Liushuibao Airfield,41.187138,121.167239,,AS,China,CN,Liaoning Province,CN-21,21,Jinzhou,0,,,,,,,,,,,,,,,,,,,,,,,,,
355969,CN-0363,small_airport,Shuangchengzi North Airfield,40.5392,100.0185,3701,AS,China,CN,Gansu Province,CN-62,62,Jiuquan (Jinta),0,,,,,,,,,,,,,,,,,,,,,,,,,
350988,CN-0280,small_airport,Huyanghe Wuwu Airport,44.885235,84.720739,991,AS,China,CN,Xinjiang Autonomous Region,CN-65,65,Karamay,0,,,,,,,,,,,,,,,,,,,,,,,,,
350980,CN-0272,small_airport,Xinhe Qianfu Airport,41.66629,82.58655,3373,AS,China,CN,Xinjiang Autonomous Region,CN-65,65,Kuqa,0,,,,,,,,,,,,,,,,,,,,,,,,,
350948,CN-0252,small_airport,Xueye Aeronautics Technology Sports Park,36.43788,117.56978,770,AS,China,CN,Shandong Province,CN-37,37,Laiwu,0,,,,,,,,,,,,,,,,,,,,,,,,,
430024,CN-0385,small_airport,Lanping Fenghua General Airport,26.64518,99.54419,8276,AS,China,CN,Yunnan Province,CN-53,53,Lanping (Fenghua),0,,,,,,,,,,,,,,,,,,,,,,,,,
318170,CN-0052,small_airport,Leshan Jiajiang Airport,29.732148,103.613477,,AS,China,CN,Sichuan Province,CN-51,51,Leshan (Jiajiang),0,,,,,,,,,,,,,,,,,,,,,,,,,
44109,CN-0033,small_airport,Damxung Air Base,30.486273,91.082561,14105,AS,China,CN,Tibet Autonomous Region,CN-54,54,Lhasa (Damxung),0,,,,,,,,,,,,,,,,,,,,,,,,,
31819,ZULP,small_airport,Liangping Airport,30.679399,107.786003,,AS,China,CN,Chongqing Municipality,CN-50,50,Liangping,0,ZULP,LIA,,,,,,,,,,,,,,,,,,,,,,,
354521,CN-0336,small_airport,Runway 07,34.763616,119.434175,,AS,China,CN,Jiangsu Province,CN-32,32,Lianyungang,0,,,,,,,,,,,,,,,,,,,,,,,,,
335272,ZYLY,small_airport,Liaoyang Air Base,41.277976,123.078729,57,AS,China,CN,Liaoning Province,CN-21,21,Liaoyang,0,ZYLY,,,,,,,,,,,,,,,,,,,,,,,,
354382,ZMAZ,small_airport,Mazongshan Airport,42.308371,97.077148,5462,AS,China,CN,Gansu Province,CN-62,62,Mazongshan,0,ZMAZ,,,,,,,,,,,,,,,,,,,,,,,,
350943,CN-0248,small_airport,Pengshan Air Base,30.26485,103.8511,1447,AS,China,CN,Sichuan Province,CN-51,51,Meishan (Pengshan),0,,,,,,,,,,,,,,,,,,,,,,,,,
32701,ZGXN,small_airport,Xingning Air Base,24.1492,115.758003,,AS,China,CN,Guangdong Province,CN-44,44,Meizhou (Xingning),0,ZGXN,XIN,,,,,,,,,,,,,,,,,,,,,,,
42466,CN-0002,closed,Nanjing Dajiaochang Airport,31.996394,118.81279,,AS,China,CN,Jiangsu Province,CN-32,32,Nanjing,0,,,,,,,,,,,,,,,,,,,,,,,,,
348699,CN-0224,small_airport,Luhe Ma'an Airport,32.37938,118.79465,79,AS,China,CN,Jiangsu Province,CN-32,32,Nanjing,0,,,,,,,,,,,,,,,,,,,,,,,,,
350874,CN-0235,small_airport,Jiangning Tushan Air Base,31.97139,118.8404,33,AS,China,CN,Jiangsu Province,CN-32,32,Nanjing,0,,,,,,,,,,,,,,,,,,,,,,,,,
356373,CN-0378,small_airport,Panjin Chenjia General Airport,41.269306,122.141361,,AS,China,CN,Liaoning Province,CN-21,21,Panjin,0,,,,,,,,,,,,,,,,,,,,,,,,,
351909,CN-0296,small_airport,Qingdao Cihang General Airport,36.983261,120.268279,383,AS,China,CN,Shandong Province,CN-37,37,Qingdao,0,,,,,,,,,,,,,,,,,,,,,,,,,
350957,CN-0261,small_airport,Gannan Chahayang Airport,48.20117,124.17853,591,AS,China,CN,Heilongjiang Province,CN-23,23,Qiqihar,0,,,,,,,,,,,,,,,,,,,,,,,,,
350959,CN-0263,small_airport,Keshan Farm Airport,48.30346,125.35989,991,AS,China,CN,Heilongjiang Province,CN-23,23,Qiqihar,0,,,,,,,,,,,,,,,,,,,,,,,,,
337839,CN-0110,small_airport,Meiji Jiao (Mischief Reef),9.92102,115.5059,,AS,China,CN,Hainan Province,CN-46,46,Sansha (Meiji Jiao / Mischief Reef),0,,,,,,,,,,,,,,,,,,,,,,,,,
314644,CN-0029,small_airport,Fiery Cross Reef Airfield,9.552789,112.889554,,AS,China,CN,Hainan Province,CN-46,46,Sansha (Yongshu Jiao / Fiery Cross Reef),0,,,,,,,,,,,,,,,,,,,,,,,,,
337838,CN-0108,small_airport,Zhubi Jiao (Subi Reef) Air Base,10.923926,114.070648,,AS,China,CN,Hainan Province,CN-46,46,Sansha (Zhubi Jiao / Subi Reef),0,,,,,,,,,,,,,,,,,,,,,,,,,
351133,CN-0290,small_airport,Sanya Air Base,18.28754,109.46372,30,AS,China,CN,Hainan Province,CN-46,46,Sanya,0,,,,,,,,,,,,,,,,,,,,,,,,,
342174,CN-0155,small_airport,Shanghai Chongming Airport,31.664,121.5187,16,AS,China,CN,Shanghai Municipality,CN-31,31,Shanghai (Chongming),0,,,,,,,,,,,,,,,,,,,,,,,,,
348164,CN-0199,small_airport,Shanghai Gaodong Airport,31.33396,121.62176,,AS,China,CN,Shanghai Municipality,CN-31,31,Shanghai (Pudong),0,,,,,,,,,,,,,,,,,,,,,,,,,
324348,CN-0073,small_airport,Shangluo Airport,33.708533,110.249284,,AS,China,CN,Shaanxi Province,CN-61,61,Shangluo (Danfeng),0,,DFA,,,,,,,,,,,,,,,,,,,,,,,
32295,ZBSH,small_airport,Qinhuangdao Shanhaiguan Airport,39.968679,119.730635,30,AS,China,CN,Hebei Province,CN-13,13,"Shanhaiguan, Qinhuangdao",0,ZBSH,,,,,,,,,,,,,,,,,,,,,,,,
315143,CN-0036,small_airport,Shantou Waisha Airport,23.426901,116.762001,29,AS,China,CN,Guangdong Province,CN-44,44,Shantou (Longhu),0,,,,,,,,,,,,,,,,,,,,,,,,,
350951,CN-0255,small_airport,Xinchang Wanfeng General Airport,29.4535,121.0104,682,AS,China,CN,Zhejiang Province,CN-33,33,Shaoxing,0,,,,,,,,,,,,,,,,,,,,,,,,,
44207,CN-0129,small_airport,Shihezi Shandanhu General Airport,44.333051,86.116674,,AS,China,CN,Xinjiang Autonomous Region,CN-65,65,Shihezi,0,,,,,,,,,,,,,,,,,,,,,,,,,
350981,CN-0273,small_airport,Shihezi Tuoling Mengpo Airport,45.042755,86.131661,1119,AS,China,CN,Xinjiang Autonomous Region,CN-65,65,Shihezi,0,,,,,,,,,,,,,,,,,,,,,,,,,
348149,CN-0177,small_airport,Shijiazhuang Luancheng Airport,37.91305,114.59166,197,AS,China,CN,Hebei Province,CN-13,13,Shijiazhuang,0,,LCT,,,,,,,,,,,,,,,,,,,,,,,
350855,CN-0230,small_airport,PLAAF Shijiazhiang Flight Academy,38.08191,114.41804,282,AS,China,CN,Hebei Province,CN-13,13,Shijiazhuang,0,,,,,,,,,,,,,,,,,,,,,,,,,
350966,CN-0269,small_airport,Raohe Bawujiu Farm Airport,47.45055,134.06924,217,AS,China,CN,Heilongjiang Province,CN-23,23,Shuangyashan,0,,,,,,,,,,,,,,,,,,,,,,,,,
350965,CN-0268,small_airport,Zhaodong Beidahuang General Airport,46.12779,125.77354,469,AS,China,CN,Heilongjiang Province,CN-23,23,Suihua,0,,HLJ,,,,,,,,,,,,,,,,,,,,,,,
323880,ZUSN,small_airport,Suining Airport,30.471295,105.610925,,AS,China,CN,Sichuan Province,CN-51,51,Suining (Chuanshan),0,ZUSN,,,,,,,,,,,,,,,,,,,,,,,,
348170,CN-0213,small_airport,Guangshui Air Base,31.6625,113.81777,,AS,China,CN,Hubei Province,CN-42,42,Suizhou,0,,,,,,,,,,,,,,,,,,,,,,,,,
307017,ZYTH,small_airport,Da Hinggan Ling Targen Airport,52.224444,124.720222,1240,AS,China,CN,Heilongjiang Province,CN-23,23,Tahe,0,ZYTH,,,,,,,,,,,,,,,,,,,,,,,,
352226,CN-0300,small_airport,Taiyuan Yaocheng Airport,37.50312,112.424126,,AS,China,CN,Shanxi Province,CN-14,14,Taiyuan,0,,TYC,,,,,,,,,,,,,,,,,,,,,,,
354335,ZBTG,small_airport,Tianjin Tanggu Airport,38.898114,117.657244,,AS,China,CN,Tianjin Municipality,CN-12,12,Tanggu,0,ZBTG,,,,,,,,,,,,,,,,,,,,,,,,
350991,CN-0283,small_airport,Tekes Zhuque Airport,43.20563,81.79847,,AS,China,CN,Xinjiang Autonomous Region,CN-65,65,Tekes,0,,,,,,,,,,,,,,,,,,,,,,,,,
350982,CN-0274,small_airport,Tiemenguan Shuangfeng Airport,41.77703,85.44939,2953,AS,China,CN,Xinjiang Autonomous Region,CN-65,65,Tiemenguan,0,,,,,,,,,,,,,,,,,,,,,,,,,
350983,CN-0275,small_airport,Tumxuk Hedong Airport,39.43714,78.25212,3724,AS,China,CN,Xinjiang Autonomous Region,CN-65,65,Tumxuk,0,,,,,,,,,,,,,,,,,,,,,,,,,
355960,CN-0360,small_airport,Urad Front Banner Gongmiaozi Airport,40.614366,108.998835,3369,AS,China,CN,Inner Mongolia Autonomous Region,CN-15,15,Urad Front Banner,0,,,,,,,,,,,,,,,,,,,,,,,,,
328940,WZQ,small_airport,Urad Middle Banner Airport,41.460289,108.539085,3996,AS,China,CN,Inner Mongolia Autonomous Region,CN-15,15,Urad Middle Banner,0,,WZQ,,,,,,,,,,,,,,,,,,,,,,,
350986,CN-0278,small_airport,Ürümqi Yaxin General Airport,43.67233,87.32347,4285,AS,China,CN,Xinjiang Autonomous Region,CN-65,65,Ürümqi,0,,,,,,,,,,,,,,,,,,,,,,,,,
44187,CN-0109,small_airport,Yidu Air Base,36.586635,118.527603,,AS,China,CN,Shandong Province,CN-37,37,Weifang,0,,,,,,,,,,,,,,,,,,,,,,,,,
348169,CN-0211,small_airport,Gaomi Air Base,36.3875,119.71194,,AS,China,CN,Shandong Province,CN-37,37,Weifang,0,,,,,,,,,,,,,,,,,,,,,,,,,
323883,ZLPC,small_airport,Pucheng Neifu Airport,34.833345,109.544267,,AS,China,CN,Shaanxi Province,CN-61,61,Weinan (Pucheng),0,ZLPC,,,,,,,,,,,,,,,,,,,,,,,,
348150,CN-0178,small_airport,Wuhan Hannan Municipal Airport,30.25521,114.062805,85,AS,China,CN,Hubei Province,CN-42,42,Wuhan (Hannan),0,,,,,,,,,,,,,,,,,,,,,,,,,
348171,CN-0214,small_airport,Huangpi Air Base,30.90205,114.51008,,AS,China,CN,Hubei Province,CN-42,42,Wuhan (Huangpi),0,,,,,,,,,,,,,,,,,,,,,,,,,
32649,ZSWU,small_airport,Wuhu Wanli Airport / Wuhu Air Base,31.3906,118.408997,34,AS,China,CN,Anhui Province,CN-34,34,Wuhu,0,ZSWU,WHU,,,,,,,,,,,,,,,,,,,,,,,
350952,CN-0256,small_airport,Xi'an Aerospace Base General Airport,34.13324,108.9848,1824,AS,China,CN,Shaanxi Province,CN-61,61,Xi'an (Chang'an),0,,,,,,,,,,,,,,,,,,,,,,,,,
44261,CN-0183,small_airport,Zhangzhou Airfield,24.561621,117.654665,,AS,China,CN,Fujian Province,CN-35,35,"Xiangcheng, Zhangzhou",0,,,,,,,,,,,,,,,,,,,,,,,,,
354511,CN-0332,small_airport,Industrial Airport 601,32.389746,112.140112,,AS,China,CN,Henan Province,CN-41,41,Xiangyang (Xiangzhou),0,,,,,,,,,,,,,,,,,,,,,,,,,
324338,ZYFX,small_airport,Fuxin Airport,42.069014,121.718122,548,AS,China,CN,Liaoning Province,CN-21,21,"Xihe, Fuxin",0,ZYFX,,,,,,,,,,,,,,,,,,,,,,,,
308722,ZBXT,small_airport,Xingtai Dalian Airport,36.8831,114.4293,280,AS,China,CN,Hebei Province,CN-13,13,Xingtai,0,ZBXT,XNT,,,,,,,,,,,,,,,,,,,,,,,
350856,CN-0231,small_airport,Xinxiang Helicopter Air Base,35.29336,113.83837,236,AS,China,CN,Henan Province,CN-41,41,Xinxiang,0,,,,,,,,,,,,,,,,,,,,,,,,,
350985,CN-0277,small_airport,Xinyuan Gongnaisi Airport,43.298872,84.161324,5036,AS,China,CN,Xinjiang Autonomous Region,CN-65,65,Xinyuan,0,,,,,,,,,,,,,,,,,,,,,,,,,
44183,CN-0105,small_airport,Xuzhou Yangmiao Agricultural Airport,34.56423,116.97377,121,AS,China,CN,Jiangsu Province,CN-32,32,Xuzhou,0,,,,,,,,,,,,,,,,,,,,,,,,,
348165,CN-0200,small_airport,Xuzhou Jiulishan Air Base,34.2879,117.1713,,AS,China,CN,Jiangsu Province,CN-32,32,Xuzhou,0,,,,,,,,,,,,,,,,,,,,,,,,,
348172,CN-0215,small_airport,Sheyang Airport,33.79276,120.16497,,AS,China,CN,Jiangsu Province,CN-32,32,Yancheng,0,,,,,,,,,,,,,,,,,,,,,,,,,
350946,CN-0250,small_airport,Yancheng Jianhu General Airport,33.42127,119.72231,5,AS,China,CN,Jiangsu Province,CN-32,32,Yancheng,0,,,,,,,,,,,,,,,,,,,,,,,,,
351135,ZGYJ,small_airport,Yangjiang Heshan Airport,21.961895,112.102408,33,AS,China,CN,Guangdong Province,CN-44,44,Yangjiang,0,ZGYJ,,,,,,,,,,,,,,,,,,,,,,,,
312491,CN-0023,small_airport,Beijing Yanqing Airport,40.379146,115.937519,1750,AS,China,CN,Beijing Municipality,CN-11,11,Yanqing,0,,,,,,,,,,,,,,,,,,,,,,,,,
348688,CN-0216,small_airport,Longkou Huangshan Airport,37.55449,120.2724,20,AS,China,CN,Shandong Province,CN-37,37,Yantai,0,,,,,,,,,,,,,,,,,,,,,,,,,
348689,CN-0217,small_airport,Penglai Shahekou Airport,37.80473,120.80954,20,AS,China,CN,Shandong Province,CN-37,37,Yantai,0,,,,,,,,,,,,,,,,,,,,,,,,,
300456,ZUYB,small_airport,Yibin Caiba Airport,28.800556,104.545,924,AS,China,CN,Sichuan Province,CN-51,51,Yibin (Cuiping),0,,,,,,,,,,,,,,,,,,,,,,,,,
355963,CN-0362,small_airport,Yinchuan Yueyahu Airport,38.588095,106.539788,3727,AS,China,CN,Ningxia Autonomous Region,CN-64,64,Yinchuan,0,,,,,,,,,,,,,,,,,,,,,,,,,
44115,CN-0039,small_airport,Lijiang Airport,23.5847,102.010003,,AS,China,CN,Yunnan Province,CN-53,53,Yuanjiang,0,,,,,,,,,,,,,,,,,,,,,,,,,
315169,CN-0037,small_airport,Yongji Airport,34.8723,110.361,1236,AS,China,CN,Shanxi Province,CN-14,14,Yuncheng (Yongji),0,,,,,,,,,,,,,,,,,,,,,,,,,
308237,ZGLD,small_airport,Luoding Sulong Airport,22.711169,111.60134,190,AS,China,CN,Guangdong Province,CN-44,44,Yunfu (Luoding),0,ZGLD,,,,,,,,,,,,,,,,,,,,,,,,
355970,CN-0364,small_airport,Gaotai Airport,39.41188,99.77868,4403,AS,China,CN,Gansu Province,CN-62,62,Zhangye (Gaotai),0,,,,,,,,,,,,,,,,,,,,,,,,,
349472,CN-0228,small_airport,Linze Danxia Airport,39.04572,100.16785,5089,AS,China,CN,Gansu Province,CN-62,62,Zhangye (Linze),0,,,,,,,,,,,,,,,,,,,,,,,,,
356102,CN-0374,small_airport,Zhangpu Air Base,24.0452,117.8497,85,AS,China,CN,Fujian Province,CN-35,35,Zhangzhou (Zhangpu),0,,,,,,,,,,,,,,,,,,,,,,,,,
430483,CN-0394,small_airport,Zhanjiang Jiushashi Airport,21.25491,109.79244,,AS,China,CN,Guangdong Province,CN-44,44,Zhanjiang (Suixi),0,,,,,,,,,,,,,,,,,,,,,,,,,
349715,AZJ,small_airport,Zhenjiang Dalu Airport,32.23649,119.718683,16,AS,China,CN,Jiangsu Province,CN-32,32,Zhenjiang,0,,AZJ,,,,,,,,,,,,,,,,,,,,,,,
337836,CN-0102,small_airport,Zhongshan Sanjiao Airport,22.66392,113.46885,,AS,China,CN,Guangdong Province,CN-44,44,Zhongshan,0,,,,,,,,,,,,,,,,,,,,,,,,,
351137,CN-0291,small_airport,Zhuhai Lianzhou General Airport,22.33594,113.18911,1,AS,China,CN,Guangdong Province,CN-44,44,Zhuhai,0,,,,,,,,,,,,,,,,,,,,,,,,,
337835,CN-0010,small_airport,Zhuhai Jiuzhou Airport,22.25211,113.59031,,AS,China,CN,Guangdong Province,CN-44,44,Zhuhai (Xiangzhou),0,,,,,,,,,,,,,,,,,,,,,,,,,
348694,CN-0220,small_airport,Zibo Air Base,36.80982,117.8922,131,AS,China,CN,Shandong Province,CN-37,37,Zibo,0,,,,,,,,,,,,,,,,,,,,,,,,,
323879,CN-0051,small_airport,Zigong Fengming Airport,29.376484,104.625789,1133,AS,China,CN,Sichuan Province,CN-51,51,Zigong (Gongjing),0,,ZKL,,,,,,,,,,,,,,,,,,,,,,,
354522,CN-0337,heliport,Military Helipad,34.751857,119.461384,,AS,China,CN,Jiangsu Province,CN-32,32,,0,,,,,,,,,,,,,,,,,,,,,,,,,
354536,CN-0340,closed,Airport (under construction),34.543045,116.298608,,AS,China,CN,Jiangsu Province,CN-32,32,,0,,,,,,,,,,,,,,,,,,,,,,,,,
44179,CN-0101,seaplane_base,Qingdao Naval Base,36.0469017,120.2839966,,AS,China,CN,Shandong Province,CN-37,37,,0,,,,,,,,,,,,,,,,,,,,,,,,,
354884,CN-0348,heliport,Industrial Helipad,40.583306,93.394014,,AS,China,CN,Gansu Province,CN-62,62,,0,,,,,,,,,,,,,,,,,,,,,,,,,
354520,CN-0335,heliport,Military Helipad,46.885902,85.172099,,AS,China,CN,Xinjiang Autonomous Region,CN-65,65,,0,,,,,,,,,,,,,,,,,,,,,,,,,
354893,CN-0349,heliport,Military Helipad,41.763301,87.423469,,AS,China,CN,Xinjiang Autonomous Region,CN-65,65,,0,,,,,,,,,,,,,,,,,,,,,,,,,
354907,CN-0350,heliport,Industrial Helipads (3x),40.467886,90.888053,,AS,China,CN,Xinjiang Autonomous Region,CN-65,65,,0,,,,,,,,,,,,,,,,,,,,,,,,,
350979,CN-0271,heliport,Aksu Doulang Heliport,41.19555,80.25361,3671,AS,China,CN,Xinjiang Autonomous Region,CN-65,65,Aksu,0,,,,,,,,,,,,,,,,,,,,,,,,,
349469,CN-0225,closed,Aksu Yituan Airport,40.67737,79.89501,3451,AS,China,CN,Xinjiang Autonomous Region,CN-65,65,Aksu (Yingbin),0,,,,,,,,,,,,,,,,,,,,,,,,,
341903,CN-0128,heliport,Anji County Heliport,30.601008,119.650912,,AS,China,CN,Zhejiang Province,CN-33,33,"Anji, Huzhou",0,,,,,,,,,,,,,,,,,,,,,,,,,
342663,CN-0160,closed,Ankang Wulipu Airport,32.708056,108.931111,850,AS,China,CN,Shaanxi Province,CN-61,61,Ankang (Hanbin),0,,,,,,,,,,,,,,,,,,,,,,,,,
354408,CN-0325,heliport,Antelope Reef Helipad,16.446411,111.606508,,AS,China,CN,Hainan Province,CN-46,46,Antelope Reef,0,,,,,,,,,,,,,,,,,,,,,,,,,
333848,CN-0086,closed,Dalachi Airbase,36.628134,105.002346,5699,AS,China,CN,Gansu Province,CN-62,62,Baiyin (Pingchuan),0,,,,,,,,,,,,,,,,,,,,,,,,,
430026,CN-0387,heliport,Baoshan Changlinggang Heliport,24.99874,99.224,5632,AS,China,CN,Yunnan Province,CN-53,53,Baoshan (Longyang),0,,,,,,,,,,,,,,,,,,,,,,,,,
348163,CN-0196,closed,Former Bengbu Airport,32.93333,117.36666,,AS,China,CN,Anhui Province,CN-34,34,Bengbu,0,,,,,,,,,,,,,,,,,,,,,,,,,
350947,CN-0251,heliport,Binhai Eastern General Heliport,39.05072,117.73315,,AS,China,CN,Tianjin Municipality,CN-12,12,Binhai,0,,,,,,,,,,,,,,,,,,,,,,,,,
355511,CN-0354,closed,Ngari Burang Airport (under construction),30.3942,81.134033,13943,AS,China,CN,Tibet Autonomous Region,CN-54,54,Burang Town,0,,,,,,,,,,,,,,,,,,,,,,,,,
324335,CN-0070,closed,Changchun East Airport,43.888157,125.405307,660,AS,China,CN,Jilin Province,CN-22,22,Changchun,0,,,,,,,,,,,,,,,,,,,,,,,,,
318233,CN-0058,closed,Lanzhou Donggang (Gongxingdun) Airport,39.948964,124.145162,,AS,China,CN,Liaoning Province,CN-21,21,"Chengguan, Dandong",0,,,,,,,,,,,,,,,,,,,,,,,,,
354402,CN-0323,heliport,Johnson South Reef Helipad,9.716206,114.287054,,AS,China,CN,Hainan Province,CN-46,46,Chigua Island,0,,,,,,,,,,,,,,,,,,,,,,,,,
356392,CN-0379,closed,Chuxiong Airfield,25.04082,101.56498,,AS,China,CN,Yunnan Province,CN-53,53,Chuxiong (Xiong),0,,,,,,,,,,,,,,,,,,,,,,,,,
348166,CN-0202,closed,Datong Beijiazao Airport,40.03942,113.39344,,AS,China,CN,Shanxi Province,CN-14,14,Datong,0,,,,,,,,,,,,,,,,,,,,,,,,,
430028,CN-0389,heliport,Ruili Jingcheng Heliport,24.06732,97.81748,3806,AS,China,CN,Yunnan Province,CN-53,53,Dehong (Ruili),0,,,,,,,,,,,,,,,,,,,,,,,,,
354513,CN-0334,heliport,Zhongjiang Military Heliport,30.845684,104.679837,,AS,China,CN,Sichuan Province,CN-51,51,Deyang (Zhongjiang),0,,,,,,,,,,,,,,,,,,,,,,,,,
430482,CN-0393,heliport,Dongfang Heliport,19.136827,108.672649,,AS,China,CN,Hainan Province,CN-46,46,Dongfang,0,,,,,,,,,,,,,,,,,,,,,,,,,
354409,CN-0326,heliport,Duncan Island Helipads (8x),16.454072,111.706774,,AS,China,CN,Hainan Province,CN-46,46,Duncan Island,0,,,,,,,,,,,,,,,,,,,,,,,,,
347108,EHU,closed,Ezhou Huahu Airport (under construction),30.341178,115.03926,86,AS,China,CN,Hebei Province,CN-13,13,Ezhou,0,,EHU,,,,,,,,,,,,,,,,,,,,,,,
333850,CN-0088,closed,Dabao Airbase,40.5402,124.2295,200,AS,China,CN,Liaoning Province,CN-21,21,"Fengcheng, Dandong",0,,,,,,,,,,,,,,,,,,,,,,,,,
340838,CN-0124,heliport,Wangzhuang Rescue Helipad,26.072323,119.318734,,AS,China,CN,Fujian Province,CN-35,35,Fuzhou,0,,,,,,,,,,,,,,,,,,,,,,,,,
340839,CN-0126,heliport,Fuzhou Zongyuan Helipad,26.093229,119.276626,,AS,China,CN,Fujian Province,CN-35,35,Fuzhou,0,,,,,,,,,,,,,,,,,,,,,,,,,
340835,CN-0122,heliport,Fuzhou Zhuqi Heliport,26.123906,119.113959,200,AS,China,CN,Fujian Province,CN-35,35,Fuzhou (Minhou),1,,,,,,,,,,,,,,,,,,,,,,,,,
44290,CN-0212,closed,Dalian Yingchenzi/Xinzhaizi Air Base,39.010601,121.389999,,AS,China,CN,Liaoning Province,CN-21,21,"Ganjingzi, Dalian",0,,,,,,,,,,,,,,,,,,,,,,,,,
339960,DLC,closed,Dalian Jinzhouwan International Airport (under construction),39.12255,121.59807,,AS,China,CN,Liaoning Province,CN-21,21,"Ganjingzi, Dalian",0,ZYTL,DLC,,,,,,,,,,,,,,,,,,,,,,,
44239,CN-0161,closed,Former Ganzhou Huangjin Airport,25.82666,114.91277,,AS,China,CN,Jiangxi Province,CN-36,36,Ganzhou,0,,,,,,,,,,,,,,,,,,,,,,,,,
354400,CN-0322,heliport,Gaven Reef Helipad,10.205356,114.225583,,AS,China,CN,Hainan Province,CN-46,46,Gaven Reef,0,,,,,,,,,,,,,,,,,,,,,,,,,
356095,CN-0368,heliport,Gêrzê Heliport,32.30204,84.02739,14534,AS,China,CN,Tibet Autonomous Region,CN-54,54,Gêrzê,0,,,,,,,,,,,,,,,,,,,,,,,,,
356093,CN-0366,heliport,Golmud Heliport,36.38776,94.79804,9390,AS,China,CN,Qinghai Province,CN-63,63,Golmud,0,,,,,,,,,,,,,,,,,,,,,,,,,
337837,CN-0107,heliport,Panyu Shawan Heliport,22.91308,113.32042,,AS,China,CN,Guangdong Province,CN-44,44,Guangzhou (Panyu),0,,,,,,,,,,,,,,,,,,,,,,,,,
351128,CN-0285,heliport,Guilin Rongchang Heliport,25.61666,110.49731,715,AS,China,CN,Guangxi Autonomous Region,CN-45,45,Guilin,0,,,,,,,,,,,,,,,,,,,,,,,,,
351129,CN-0286,heliport,Guilin Gaotian Heliport,24.71781,110.45589,459,AS,China,CN,Guangxi Autonomous Region,CN-45,45,Guilin (Yangshuo),0,,,,,,,,,,,,,,,,,,,,,,,,,
44142,CN-0064,closed,Haikou Dayingshan (Haikou City) Airport,20.0189,110.347,,AS,China,CN,Hainan Province,CN-46,46,Haikou (Meilan),0,,,,,,,,,,,,,,,,,,,,,,,,,
323882,CN-0065,closed,Hanzhong Xiguan Airport,33.063599,107.008003,,AS,China,CN,Shaanxi Province,CN-61,61,Hanzhong (Hantai),0,,,,,,,,,,,,,,,,,,,,,,,,,
352495,CN-0307,heliport,Hegang Mingshan Heliport,47.67674,131.05795,233,AS,China,CN,Heilongjiang Province,CN-23,23,Hegang,0,,,,,,,,,,,,,,,,,,,,,,,,,
352499,CN-0309,heliport,Hegang Taipinggou Heliport,48.12698,130.64346,338,AS,China,CN,Heilongjiang Province,CN-23,23,Hegang,0,,,,,,,,,,,,,,,,,,,,,,,,,
352507,CN-0311,heliport,Hegang Zhongxing Heliport,47.64927,131.96947,184,AS,China,CN,Heilongjiang Province,CN-23,23,Hegang,0,,,,,,,,,,,,,,,,,,,,,,,,,
350955,CN-0259,heliport,Wudalianchi Zhanhe Heliport,48.62679,126.61309,902,AS,China,CN,Heilongjiang Province,CN-23,23,Heihe,0,,,,,,,,,,,,,,,,,,,,,,,,,
352920,CN-0312,heliport,Heihe Zhangdiyingzi Heliport,50.55466,127.33141,440,AS,China,CN,Heilongjiang Province,CN-23,23,Heihe,0,,,,,,,,,,,,,,,,,,,,,,,,,
350984,CN-0276,heliport,Hejing Gonghar Heliport,42.31126,86.30471,3642,AS,China,CN,Xinjiang Autonomous Region,CN-65,65,Hejing,0,,,,,,,,,,,,,,,,,,,,,,,,,
354395,CN-0319,heliport,Huayang Jiao Helipad,8.864231,112.831902,,AS,China,CN,Hainan Province,CN-46,46,Huayang Jiao,0,,,,,,,,,,,,,,,,,,,,,,,,,
354404,CN-0324,heliport,Hughes Reef Helipad,9.908255,114.49831,,AS,China,CN,Hainan Province,CN-46,46,Hughes Reef,0,,,,,,,,,,,,,,,,,,,,,,,,,
355816,CN-0356,heliport,Baigang Shalan Heliport,22.76941,114.62793,98,AS,China,CN,Guangdong Province,CN-44,44,Huizhou (Huiyang),0,,,,,,,,,,,,,,,,,,,,,,,,,
352992,CN-0314,heliport,Ergun Mengwushiwei Heliport,51.32797,119.9273,1578,AS,China,CN,Inner Mongolia Autonomous Region,CN-15,15,Hulunbuir,0,,,,,,,,,,,,,,,,,,,,,,,,,
350956,CN-0260,heliport,Da Hinggan Ling Yiziquan Heliport,51.58833,126.31416,1207,AS,China,CN,Heilongjiang Province,CN-23,23,Huma,0,,,,,,,,,,,,,,,,,,,,,,,,,
352928,CN-0313,heliport,Da Hinggan Ling Sankaxiang Heliport,51.14672,126.89714,492,AS,China,CN,Heilongjiang Province,CN-23,23,Huma,0,,,,,,,,,,,,,,,,,,,,,,,,,
352488,CN-0301,heliport,Tongjiang Sancun Heliport,47.75486,132.62776,187,AS,China,CN,Heilongjiang Province,CN-23,23,Jiamusi,0,,,,,,,,,,,,,,,,,,,,,,,,,
352489,CN-0302,heliport,Tongjiang Sanjiangkou Heliport,47.69104,132.51626,184,AS,China,CN,Heilongjiang Province,CN-23,23,Jiamusi,0,,,,,,,,,,,,,,,,,,,,,,,,,
352490,CN-0303,heliport,Tongjiang Xinfacun Heliport,47.68483,132.52615,174,AS,China,CN,Heilongjiang Province,CN-23,23,Jiamusi,0,,,,,,,,,,,,,,,,,,,,,,,,,
352491,CN-0304,heliport,Tongjiang Qindeli Heliport,48.10031,133.35684,213,AS,China,CN,Heilongjiang Province,CN-23,23,Jiamusi,0,,,,,,,,,,,,,,,,,,,,,,,,,
352493,CN-0305,heliport,Fuyuan Nongjiangxiang Heliport,48.27817,134.29517,184,AS,China,CN,Heilongjiang Province,CN-23,23,Jiamusi,0,,,,,,,,,,,,,,,,,,,,,,,,,
353165,CN-0315,seaplane_base,Jinshan City Beach Seaplane Base,30.709688,121.349177,,AS,China,CN,Shanghai Municipality,CN-31,31,"Jinshan, Shanghai",0,,,,,,,,,,,,,,,,,,,,,,,,,
350953,CN-0257,heliport,Hulin Dongfanghong Heliport,46.22518,133.11317,299,AS,China,CN,Heilongjiang Province,CN-23,23,Jixi,0,,,,,,,,,,,,,,,,,,,,,,,,,
352123,CN-0298,closed,Mishan Yonghong Airport,45.29021,132.84763,230,AS,China,CN,Heilongjiang Province,CN-23,23,Jixi,0,,,,,,,,,,,,,,,,,,,,,,,,,
356099,CN-0372,heliport,Aksai Chin Heliport,35.24569,79.54054,15988,AS,China,CN,Xinjiang Autonomous Region,CN-65,65,Khotan,0,,,,,,,,,,,,,,,,,,,,,,,,,
333849,CN-0087,closed,Chenggong Airport,24.846346,102.801256,6234,AS,China,CN,Yunnan Province,CN-53,53,Kunming (Chenggong),0,,,,,,,,,,,,,,,,,,,,,,,,,
356313,CN-0376,closed,Ledong Naval Air Base,18.49391,108.83202,,AS,China,CN,Hainan Province,CN-46,46,Ledong Li Autonomous County,0,,,,,,,,,,,,,,,,,,,,,,,,,
350945,CN-0249,closed,New Sichuan Leshan Airport (under construction),29.43687,103.71529,,AS,China,CN,Sichuan Province,CN-51,51,Leshan (Wutongqiao),0,,,,,,,,,,,,,,,,,,,,,,,,,
356098,CN-0371,heliport,Lhasa Liuwuxiang Heliport,29.58933,91.02058,11909,AS,China,CN,Tibet Autonomous Region,CN-54,54,Lhasa (Doilungdêqên),0,,,,,,,,,,,,,,,,,,,,,,,,,
430025,CN-0386,heliport,Lijiang Baisha Heliport,26.96962,100.23945,8323,AS,China,CN,Yunnan Province,CN-53,53,Lijiang (Yulong),0,,,,,,,,,,,,,,,,,,,,,,,,,
430050,CN-0390,closed,Yongde Airfield,24.20866,99.28416,,AS,China,CN,Yunnan Province,CN-53,53,Lincang (Yongde),0,,,,,,,,,,,,,,,,,,,,,,,,,
44153,CN-0075,closed,Meixian Air Base,24.264999,116.099998,,AS,China,CN,Guangdong Province,CN-44,44,Meizhou (Meixian),0,,,,,,,,,,,,,,,,,,,,,,,,,
352121,CN-0297,heliport,Mudanjiang Suifenhe Heliport,44.44387,131.13758,1696,AS,China,CN,Heilongjiang Province,CN-23,23,Mudanjiang,0,,,,,,,,,,,,,,,,,,,,,,,,,
356096,CN-0369,heliport,Nyima Heliport,31.78739,87.29839,14997,AS,China,CN,Tibet Autonomous Region,CN-54,54,Nagqu (Nyima),0,,,,,,,,,,,,,,,,,,,,,,,,,
356097,CN-0370,heliport,Seni Heliport,31.414472,91.983751,14730,AS,China,CN,Tibet Autonomous Region,CN-54,54,Nagqu (Seni),0,,,,,,,,,,,,,,,,,,,,,,,,,
44240,CN-0162,closed,Nanchang Yaohu Airport,28.635599,115.93,,AS,China,CN,Jiangxi Province,CN-36,36,Nanchang,0,,,,,,,,,,,,,,,,,,,,,,,,,
350872,CN-0233,heliport,Nanjing Ruohang Helicopter Base,32.05749,118.5722,282,AS,China,CN,Jiangsu Province,CN-32,32,Nanjing,0,,,,,,,,,,,,,,,,,,,,,,,,,
350950,CN-0254,closed,Nanning Lingli General Airport (under construction),22.8519,108.7806,233,AS,China,CN,Guangxi Autonomous Region,CN-45,45,Nanning,0,,,,,,,,,,,,,,,,,,,,,,,,,
354503,CN-0328,heliport,Xixiangtang Poiice Heliport,22.840149,108.146303,,AS,China,CN,Guangxi Autonomous Region,CN-45,45,Nanning (Xixiangtang),0,,,,,,,,,,,,,,,,,,,,,,,,,
350887,CN-0239,heliport,Woduhe Heliport,50.53783,125.81467,1076,AS,China,CN,Heilongjiang Province,CN-23,23,"Nenjiang, Heihe",0,,,,,,,,,,,,,,,,,,,,,,,,,
342201,CN-0156,heliport,Rimuchang Heliport,33.76843,79.07384,,AS,China,CN,Tibet Autonomous Region,CN-54,54,Ngari (Rutog),0,,,,,,,,,,,,,,,,,,,,,,,,,
429832,CN-0382,heliport,Beibeng Heliport,29.24251,95.16765,,AS,China,CN,Tibet Autonomous Region,CN-54,54,Nyingchi (Mêdog),0,,,,,,,,,,,,,,,,,,,,,,,,,
354017,CN-0320,heliport,Shanghai Tangchen Heliport,31.220837,121.576877,,AS,China,CN,Shanghai Municipality,CN-31,31,Pudong,0,,,,,,,,,,,,,,,,,,,,,,,,,
356393,CN-0380,heliport,Feihu Aviation Dushan Training Base Heliport,25.81198,107.50807,,AS,China,CN,Guizhou Province,CN-52,52,Qiannan (Dushan),0,,,,,,,,,,,,,,,,,,,,,,,,,
342842,CN-0167,closed,Former Qiemo Airport,38.14886,85.5325,4085,AS,China,CN,Xinjiang Autonomous Region,CN-65,65,Qiemo,0,,,,,,,,,,,,,,,,,,,,,,,,,
317868,CN-0038,heliport,BFA International Convention Center Heliport,19.140251,110.5632,,AS,China,CN,Hainan Province,CN-46,46,Qionghai (Dongyu Dao),0,,,,,,,,,,,,,,,,,,,,,,,,,
44128,CN-0035,closed,Zhanyi Airport,25.592035,103.829188,6109,AS,China,CN,Yunnan Province,CN-53,53,Qujing (Zhanyi),0,,,,,,,,,,,,,,,,,,,,,,,,,
354722,CN-0347,closed,Ruijin Airport (under construction),25.958108,116.078805,,AS,China,CN,Jiangxi Province,CN-36,36,Ruijin,0,,,,,,,,,,,,,,,,,,,,,,,,,
356094,CN-0367,heliport,Rutog Heliport,33.65626,80.45084,14859,AS,China,CN,Tibet Autonomous Region,CN-54,54,Rutog,0,,,,,,,,,,,,,,,,,,,,,,,,,
342167,CN-0151,heliport,Jinyin Dao Heliport,16.4475,111.507,23,AS,China,CN,Hainan Province,CN-46,46,Sansha (Jinyin Dao / Money Island),0,,,,,,,,,,,,,,,,,,,,,,,,,
342166,CN-0150,heliport,Shanhu Dao Heliport,16.5351,111.6087,10,AS,China,CN,Hainan Province,CN-46,46,Sansha (Shanhu Dao / Pattle Island),0,,,,,,,,,,,,,,,,,,,,,,,,,
314643,CN-0028,heliport,Fiery Cross Reef Helipad,9.539168,112.880071,,AS,China,CN,Hainan Province,CN-46,46,Sansha (Yongshu Jiao / Fiery Cross Reef),0,,,,,,,,,,,,,,,,,,,,,,,,,
342165,CN-0148,heliport,Zhaoshu Dao Heliport,16.9782,112.2664,,AS,China,CN,Hainan Province,CN-46,46,Sansha (Zhaoshu Dao / Tree Island),0,,,,,,,,,,,,,,,,,,,,,,,,,
314648,CN-0031,heliport,Zhubi Jiao (Subi Reef) Helipad,10.913002,114.061933,,AS,China,CN,Hainan Province,CN-46,46,Sansha (Zhubi Jiao / Subi Reef),0,,,,,,,,,,,,,,,,,,,,,,,,,
351132,CN-0289,heliport,Sanya Tianya Heliport,18.30163,109.41793,89,AS,China,CN,Hainan Province,CN-46,46,Sanya,0,,,,,,,,,,,,,,,,,,,,,,,,,
342164,CN-0144,heliport,Luhuitou Heliport,18.1923,109.4812,569,AS,China,CN,Hainan Province,CN-46,46,Sanya (Jiyang),0,,,,,,,,,,,,,,,,,,,,,,,,,
342163,CN-0142,heliport,Xidao Heliport,18.23191,109.37722,30,AS,China,CN,Hainan Province,CN-46,46,Sanya (Tianya),0,,,,,,,,,,,,,,,,,,,,,,,,,
354015,CN-0318,heliport,Shanghai Longhua Heliport,31.167789,121.459955,,AS,China,CN,Shanghai Municipality,CN-31,31,Shanghai,0,,,,,,,,,,,,,,,,,,,,,,,,,
329665,CN-0078,heliport,Aurora Plaza Helipad,31.234386,121.499617,607,AS,China,CN,Zhejiang Province,CN-33,33,Shanghai,0,,,,,,,,,,,,,,,,,,,,,,,,,
44249,CN-0171,closed,Shanghai Longhua Airport,31.166901,121.454002,,AS,China,CN,Shanghai Municipality,CN-31,31,Shanghai (Xuhui),0,ZSSL,,,,,,,,,,,,,,,,,,,,,,,,
44251,CN-0173,closed,Shanghai Jiangwan Airfield,31.333,121.5,,AS,China,CN,Shanghai Municipality,CN-31,31,Shanghai (Yangpu),0,,,,,,,,,,,,,,,,,,,,,,,,,
430174,CN-0392,heliport,Cona Heliport,28.0068,91.96402,,AS,China,CN,Tibet Autonomous Region,CN-54,54,Shannan (Cona),0,,,,,,,,,,,,,,,,,,,,,,,,,
351139,CN-0292,heliport,Shenzhen Longgang Heliport,22.69202,114.23685,194,AS,China,CN,Guangdong Province,CN-44,44,Shenzhen,0,,,,,,,,,,,,,,,,,,,,,,,,,
351140,CN-0293,heliport,Shenzhen Xiyong Heliport,22.61392,114.37731,33,AS,China,CN,Guangdong Province,CN-44,44,Shenzhen,0,,,,,,,,,,,,,,,,,,,,,,,,,
355764,CN-0355,heliport,Shenzhen Sun Yat-sen Cardiovascular Hospital Helipad,22.559494,113.942868,,AS,China,CN,Guangdong Province,CN-44,44,Shenzhen,0,,,,,,,,,,,,,,,,,,,,,,,,,
339167,CN-0115,heliport,Peking University Shenzhen Hospital Helipad,22.55887,114.045064,,AS,China,CN,Guangdong Province,CN-44,44,Shenzhen (Futian),0,,,,,,,,,,,,,,,,,,,,,,,,,
344628,CN-0174,heliport,Shum Yip Upper Hills Tower Helipad,22.55955,114.06675,,AS,China,CN,Guangdong Province,CN-44,44,Shenzhen (Futian),0,,,,,,,,,,,,,,,,,,,,,,,,,
344629,CN-0175,heliport,Second People's Hospital of Shenzhen Heliport,22.56011,114.08093,,AS,China,CN,Guangdong Province,CN-44,44,Shenzhen (Futian),0,,,,,,,,,,,,,,,,,,,,,,,,,
344630,CN-0176,heliport,Shenzhen Shuxue Medical Science Institute Heliport,22.56047,114.08172,,AS,China,CN,Guangdong Province,CN-44,44,Shenzhen (Futian),0,,,,,,,,,,,,,,,,,,,,,,,,,
339165,CN-0112,heliport,Lingjiao Heliport,22.59417,114.5378,,AS,China,CN,Guangdong Province,CN-44,44,Shenzhen (Longgang),0,,,,,,,,,,,,,,,,,,,,,,,,,
339170,CN-0118,closed,Meigui Haian Pengxiang Helicopter Base,22.61466,114.37446,,AS,China,CN,Guangdong Province,CN-44,44,Shenzhen (Longgang),0,,,,,,,,,,,,,,,,,,,,,,,,,
339168,CN-0116,heliport,Honglong Century Plaza Helipad,22.543201,114.114657,,AS,China,CN,Guangdong Province,CN-44,44,Shenzhen (Luohu),0,,,,,,,,,,,,,,,,,,,,,,,,,
339169,ZGNT,heliport,Shenzhen Nantou Heliport & runway,22.558736,113.925612,,AS,China,CN,Guangdong Province,CN-44,44,Shenzhen (Nanshan),0,ZGNT,,,,,,,,,,,,,,,,,,,,,,,,
344625,CN-0168,heliport,One Shenzhen Bay 7 Helipad,22.50869,113.9376,,AS,China,CN,Guangdong Province,CN-44,44,Shenzhen (Nanshan),0,,,,,,,,,,,,,,,,,,,,,,,,,
344626,CN-0170,heliport,Excellence Qianhai Tower 3 Helipad,22.53277,113.89421,,AS,China,CN,Guangdong Province,CN-44,44,Shenzhen (Nanshan),0,,,,,,,,,,,,,,,,,,,,,,,,,
344627,CN-0172,heliport,China Resources Qianhai Center Tower 1 Helipad,22.53444,113.89526,,AS,China,CN,Guangdong Province,CN-44,44,Shenzhen (Nanshan),0,,,,,,,,,,,,,,,,,,,,,,,,,
354526,CN-0338,heliport,Nyikogli Shiquanhe Heliport,32.496868,80.072168,,AS,China,CN,Tibet Autonomous Region,CN-54,54,Shiquanhe,0,,,,,,,,,,,,,,,,,,,,,,,,,
350978,CN-0270,heliport,Hutubi Shitizi General Heliport,44.01096,86.79289,2628,AS,China,CN,Xinjiang Autonomous Region,CN-65,65,Shitizi,0,,,,,,,,,,,,,,,,,,,,,,,,,
352124,CN-0299,heliport,Raohe Dong'an Heliport,47.33582,134.172,246,AS,China,CN,Heilongjiang Province,CN-23,23,Shuangyashan,0,,,,,,,,,,,,,,,,,,,,,,,,,
350888,CN-0240,heliport,Taizhou Chunlan Heliport,32.49338,119.95283,20,AS,China,CN,Zhejiang Province,CN-33,33,Taizhou,0,,,,,,,,,,,,,,,,,,,,,,,,,
44095,CN-0019,closed,Tangshan Air Base,39.656399,118.136002,,AS,China,CN,Hebei Province,CN-13,13,Tangshan,0,,,,,,,,,,,,,,,,,,,,,,,,,
329362,CN-0077,heliport,PLA Khunjerab Post Helipad,36.930618,75.553407,13525,AS,China,CN,Xinjiang Autonomous Region,CN-65,65,Tashkurgan,0,,,,,,,,,,,,,,,,,,,,,,,,,
350883,CN-0237,closed,Tashkurgan Airport (under construction),37.661333,75.288877,10499,AS,China,CN,Xinjiang Autonomous Region,CN-65,65,Tashkurgan,0,,HQL,,,,,,,,,,,,,,,,,,,,,,,
356013,CN-0365,heliport,Hospital Helipad,39.028686,117.70708,,AS,China,CN,Tianjin Municipality,CN-12,12,Tianjin,0,,,,,,,,,,,,,,,,,,,,,,,,,
354410,CN-0327,heliport,Triton Island Helipad,15.782962,111.198909,,AS,China,CN,Hainan Province,CN-46,46,Triton Island,0,,,,,,,,,,,,,,,,,,,,,,,,,
351314,CN-0295,heliport,Simuhana Border Heliport,39.72783,73.94963,9298,AS,China,CN,Xinjiang Autonomous Region,CN-65,65,Ulugqat,0,,,,,,,,,,,,,,,,,,,,,,,,,
44181,CN-0103,closed,Wendeng Air Base,37.263011,122.025863,,AS,China,CN,Shandong Province,CN-37,37,Weihai,0,,,,,,,,,,,,,,,,,,,,,,,,,
356395,CN-0381,closed,Weining Caohai Airport (under construction),26.86444,104.34025,,AS,China,CN,Guizhou Province,CN-52,52,Weining (Bijie),0,,,,,,,,,,,,,,,,,,,,,,,,,
44162,CN-0084,closed,Wuhan Air Base,30.5986,114.241997,80,AS,China,CN,Hubei Province,CN-42,42,Wuhan (Jianghan),0,ZHWT,,,,,,,,,,,,,,,,,,,,,,,,
337834,XMN,closed,Xiamen Xiang'an Airport (under construction),24.5556,118.3534,,AS,China,CN,Fujian Province,CN-35,35,"Xiang'an, Xiamen",0,ZSAM,XMN,,,,,,,,,,,,,,,,,,,,,,,
356100,CN-0373,heliport,Daklam Heliport,28.2845,89.4035,14541,AS,China,CN,Tibet Autonomous Region,CN-54,54,Xigazê (Kangmar),0,,,,,,,,,,,,,,,,,,,,,,,,,
430173,CN-0391,heliport,Nagadong Heliport,27.75225,89.12997,,AS,China,CN,Tibet Autonomous Region,CN-54,54,Xigazê (Yadong),0,,,,,,,,,,,,,,,,,,,,,,,,,
354651,CN-0343,heliport,Prison Runway Helipad,38.356549,77.261374,,AS,China,CN,Xinjiang Autonomous Region,CN-65,65,Yarkant,0,,,,,,,,,,,,,,,,,,,,,,,,,
317986,CN-0042,closed,Former Dangyang Airport,30.823,111.8121,200,AS,China,CN,Hubei Province,CN-42,42,Yichang (Dangyang),0,,,,,,,,,,,,,,,,,,,,,,,,,
317988,CN-0044,closed,Yichang Tumenwu Airport,30.671,111.4404,235,AS,China,CN,Hubei Province,CN-42,42,Yichang (Wujiagang),0,,,,,,,,,,,,,,,,,,,,,,,,,
352497,CN-0308,heliport,Yichun Jiayin Heliport,48.70882,130.56593,302,AS,China,CN,Heilongjiang Province,CN-23,23,Yichun,0,,,,,,,,,,,,,,,,,,,,,,,,,
352500,CN-0310,heliport,Yichun Shuanghe Heliport,48.981741,130.009923,310,AS,China,CN,Heilongjiang Province,CN-23,23,Yichun,0,,,,,,,,,,,,,,,,,,,,,,,,,
317990,CN-0047,closed,Former Yueyang Airport,29.424,113.0416,90,AS,China,CN,Hunan Province,CN-43,43,Yueyang (Junshan),0,,,,,,,,,,,,,,,,,,,,,,,,,
430509,CN-0397,closed,Former Yushu Batang Airport,32.82716,97.12018,,AS,China,CN,Qinghai Province,CN-63,63,Yushu (Batang),0,,,,,,,,,,,,,,,,,,,,,,,,,
430027,CN-0388,heliport,Yuxi Jiangcheng Heliport,24.46872,102.85711,5863,AS,China,CN,Yunnan Province,CN-53,53,Yuxi (Jiangchuan),0,,,,,,,,,,,,,,,,,,,,,,,,,
342071,CN-0131,heliport,Shuyang Heliport,24.6263,117.0997,1611,AS,China,CN,Fujian Province,CN-35,35,Zhangzhou,0,,,,,,,,,,,,,,,,,,,,,,,,,
430484,CN-0395,heliport,Zhanjiang Bachang Heliport,21.23569,109.77838,,AS,China,CN,Guangdong Province,CN-44,44,Zhanjiang (Suixi),0,,,,,,,,,,,,,,,,,,,,,,,,,
356119,CN-0375,heliport,Demchok East Heliport,32.69531,79.45816,13970,AS,China,CN,Tibet Autonomous Region,CN-54,54,Zhaxigang,0,,,,,,,,,,,,,,,,,,,,,,,,,
350873,CN-0234,closed,Jurong Air Base,31.95971,119.17224,,AS,China,CN,Jiangsu Province,CN-32,32,Zhenjiang,0,,,,,,,,,,,,,,,,,,,,,,,,,
351141,CN-0294,heliport,Zhongshan International Finance Center Heliport,22.52316,113.38264,764,AS,China,CN,Guangdong Province,CN-44,44,Zhongshan,0,,,,,,,,,,,,,,,,,,,,,,,,,
339219,CN-0119,heliport,Dong'ao Heliport,22.023542,113.717093,,AS,China,CN,Guangdong Province,CN-44,44,Zhuhai (Xiangzhou),0,,,,,,,,,,,,,,,,,,,,,,,,,
339221,CN-0120,heliport,Guishan Dao Helipad,22.144529,113.824905,,AS,China,CN,Guangdong Province,CN-44,44,Zhuhai (Xiangzhou),0,,,,,,,,,,,,,,,,,,,,,,,,,
